TAF MSLP 281525Z 2818/2918 18006KT 9999 FEW040 TX36/2819Z TN24/2912Z 
  FM290100 VRB02KT CAVOK