TAF MSLP 210325Z 2106/2206 04003KT 9999 FEW070 TX34/2119Z TN21/2112Z 
     FM212000 18008KT CAVOK 
     FM220000 29006KT 9999 FEW067
