TAF MSLP 272125Z 2800/2824 02007KT 9999 FEW060 TX33/2818Z TN20/2810Z 
  FM280400 02012KT CAVOK 
  TEMPO 2806/2810 02010G20KT 
  TEMPO 2815/2819 02012G24KT