TAF MSLP 031525Z 0318/0418 01010G25KT CAVOK TX30/0319Z TN21/0410Z 
  TEMPO 0321/0324 22010KT