TAF MSLP 250930Z 2512/2612 02010G20KT CAVOK TX34/2518Z TN24/2610Z 
  FM251800 20009KT 9999 FEW060 
  FM260000 VRB03KT CAVOK 
  FM260600 04006KT CAVOK