TAF MSLP 092125Z 1000/1024 34011KT 3000 TSRA SCT017 SCT033CB BKN060 TX33/1018Z TN24/1011Z 
  FM100600 05005KT 9999 FEW013 SCT027 BKN060 
  TEMPO 1009/1012 07010G20KT 3000 TSRA SCT012 BKN033CB OVC060 
  FM101200 15006KT 9999 FEW023 SCT050