TAF MSLP 151525Z 1518/1618 02005KT 9999 FEW037 TX35/1519Z TN25/1611Z 
  TEMPO 1519/1522 15008KT 9999 FEW033 FEW037CB SCT070 
  FM152200 02010KT 9999 FEW040 SCT077 
  PROB40 
  TEMPO 1602/1605 06009KT 7000 TSRA SCT027 FEW033CB SCT060