TAF MSLP 130925Z 1312/1412 09003KT CAVOK TX35/1318Z TN24/1411Z 
  FM131800 18006KT 9999 FEW033 
  TEMPO 1402/1405 06008KT 7000 TSRA SCT020 FEW037CB BKN047 
  FM140500 03005KT 9999 SCT077