TAF MSLP 141525Z 1418/1518 02010KT CAVOK TX34/1418Z TN24/1510Z 
  TEMPO 1420/1424 13010KT 9999 FEW070 
  FM150000 02010KT CAVOK