TAF MSLP 151554Z 1518/1618 22007KT 9999 SCT027 FEW037CB TX34/1518Z TN24/1612Z 
  TEMPO 1601/1603 8000 TSRA SCT023 FEW037CB SCT060 
  TEMPO 1605/1609 07015G25KT 2000 +TSRA BKN023 BKN030CB 
  FM161100 02008KT 9999 FEW023 SCT070