TAF MSLP 170325Z 1706/1806 VRB01KT 9999 BKN065 TX33/1718Z TN24/1711Z 
  FM171200 07003KT 9999 FEW030 
  FM171600 19007KT 9999 SCT030 FEW037CB 
  TEMPO 1720/1722 8000 SHRA 
  FM180000 VRB01KT 9999 FEW030 FEW040CB