TAF MSLP 160325Z 1606/1706 07015G25KT 2000 +TSRA BKN023 BKN030CB TX34/1618Z TN24/1612Z 
  FM161000 02008KT 9999 FEW020 BKN070 
  FM161800 21010KT 9999 FEW027 FEW07CB 
  TEMPO 1620/1622 8000 TSRA SCT027 FEW037CB 
  FM170000 VRB01KT 9999 FEW023 FEW037CB