TAF MSLP 071525Z 0718/0818 02012G25KT CAVOK TX33/0718Z TN21/0810Z 
  TEMPO 0721/0724 22006G16KT