TAF MSLP 290325Z 2906/3006 02010KT 9999 FEW030 SCT065 TX36/2917Z TN25/2910Z 
  FM291200 02012KT CAVOK 
  FM291800 21010KT 9999 FEW050 
  FM300000 02008KT 9999 FEW030 SCT065