TAF MSLP 280330Z 2806/2906 04006KT CAVOK TX34/2819Z TN22/2810Z 
     FM281800 18009KT 9999 FEW047 
     FM290000 VRB02KT 9999 FEW070
