TAF MSLP 261525Z 2618/2718 22009KT 9999 FEW055 TX33/2618Z TN20/2710Z 
  FM270000 02007KT CAVOK 
  TEMPO 2714/2718 02010G20KT