TAF MSLP 250325Z 2506/2606 03004KT 9999 SCT070 TX33/2518Z TN25/2511Z 
  FM251200 05007KT CAVOK 
  FM251700 18006KT 9999 FEW037 
  FM260000 VRB02KT 9999 FEW027