TAF MSLP 241025Z 2412/2512 03007KT CAVOK TX35/2418Z TN21/2412Z 
  FM241700 13006KT 9999 SCT047 
  TEMPO 2419/2424 21007G17KT 
  FM250000 VRB02KT 9999 FEW065 
  FM250400 06004KT CAVOK