TAF MSLP 221000Z 2212/2312 04010G20KT CAVOK TX35/2218Z TN25/2310Z 
  FM221700 21009KT 9999 FEW060 
  FM230000 VRB06KT CAVOK 
  FM230600 04009KT CAVOK