TAF MSLP 020325Z 0206/0306 02005KT CAVOK TX33/0218Z TN22/0210Z 
     FM021800 22010KT 9999 FEW070 
     FM030000 VRB02KT CAVOK
