TAF MSLP 061535Z 0618/0718 22008KT 9999 SCT047 TX36/0619Z TN23/0712Z 
  FM070200 VRB02KT 9999 SCT060 
  FM070600 06007KT 9999 FEW077