TAF MSLP 081525Z 0818/0918 20005KT 9999 FEW060 TX35/0818Z TN25/0912Z 
  FM090000 VRB02KT 9999 FEW070 
  TEMPO 0903/0909 9999 BKN065 
  PROB30 
  TEMPO 0906/0907 RA 
  FM090900 04006KT CAVOK