TAF COR MSLP 192135Z 2000/2024 32004KT 9999 SCT070 TX36/2018Z TN26/2010Z 
  PROB40 
  TEMPO 2006/2007 VRB02KT 8000 SHRA BKN065 
  FM201200 03010KT CAVOK 
  FM201700 21006KT 9999 SCT047