TAF MSLP 250325Z 2506/2606 04005KT CAVOK TX33/2518Z TN23/2510Z 
     FM251800 20009KT 9999 FEW047 
     FM260000 VRB03KT 9999 FEW067
