TAF MSLP 241525Z 2418/2518 03006G16KT CAVOK TX33/2419Z TN23/2512Z 
  FM250600 03008KT CAVOK