TAF MSLP 070330Z 0706/0806 09008KT 9999 SCT027 FEW037CB BKN050 TX34/0718Z TN23/0710Z 
  TEMPO 0707/0711 02008KT 6000 RA BKN017 FEW040CB OVC047 
  FM071100 12005KT 9999 FEW017 SCT060 
  FM071800 13007KT 9999 FEW023 FEW037CB SCT047 
  TEMPO 0721/0723 16008KT 7000 RA SCT017 FEW037CB SCT043