TAF MSLP 102125Z 1100/1124 04004KT 9999 FEW047 SCT065 TX34/1117Z TN23/1110Z 
  FM110800 07005KT CAVOK 
  FM111700 22009KT 9999 FEW055