TAF MSLP 260325Z 2606/2706 03009KT CAVOK TX34/2618Z TN24/2611Z 
  FM261800 19008KT 9999 FEW070 
  FM270000 21007KT 9999 FEW077