TAF MSLP 310325Z 3106/0106 04006KT 9999 SCT067 TX35/3118Z TN25/3110Z 
  FM311100 03010KT CAVOK 
  FM311700 21012KT 9999 FEW055 
  FM010000 02004KT 9999 FEW030 SCT055 
  TEMPO 0105/0108 7000 SHRA FEW025 BKN055