TAF MSLP 141525Z 1418/1518 21008KT 9999 SCT027 FEW037CB TX35/1419Z TN25/1512Z 
  TEMPO 1421/1423 06009KT 5000 TSRA BKN023 SCT033CB BKN060 
  FM150000 04004KT 9999 FEW023 SCT070 
  FM151200 03006KT CAVOK