TAF MSLP 242125Z 2500/2524 03010G20KT CAVOK TX34/2518Z TN24/2510Z 
  FM250600 03012KT CAVOK 
  FM251200 04008KT CAVOK 
  FM251800 20009KT 9999 FEW060