TAF MSLP 020325Z 0206/0306 06010KT 6000 TSRA 9999 FEW027 FEW040CB BKN060 TX33/0218Z TN25/0210Z 
  FM020800 04005KT CAVOK 
  FM021800 13012KT 9999 SCT047 
  FM030000 25005KT CAVOK