TAF MSLP 271025Z 2712/2812 02015G30KT CAVOK TX35/2718Z TN20/2712Z 
  TEMPO 2719/2724 9999 SCT070 
  FM280000 02010G20KT CAVOK