TAF MSLP 042125Z 0500/0524 25006KT CAVOK TX36/0519Z TN24/0510Z 
  FM050400 VRB02KT CAVOK 
  FM051200 02005KT CAVOK 
  FM051800 13008KT CAVOK