TAF MSLP 160925Z 1612/1712 05004KT 9999 FEW070 TX34/1618Z TN24/1712Z 
  FM161800 21010KT 9999 FEW027 FEW037CB 
  TEMPO 1620/1622 8000 TSRA SCT027 FEW037CB 
  FM170000 VRB01KT 9999 FEW023 FEW037CB 
  FM170600 04005KT 9999 SCT060