TAF MSLP 290925Z 2912/3012 12006KT CAVOK TX36/2918Z TN23/2912Z 
  FM291800 07006KT CAVOK 
  FM300000 31004KT 9999 FEW060 
  FM300600 VRB03KT CAVOK