TAF MSLP 192125Z 2000/2024 03010KT CAVOK TX35/2018Z TN27/2012Z 
  TEMPO 2014/2018 03008G18KT 
  FM201800 04006KT 9999 FEW060