TAF MSLP 230325Z 2306/2406 02007KT CAVOK TX33/2318Z TN23/2312Z 
      TEMPO 2315/2318 02010G20KT 
     FM231800 02008KT 9999 FEW055 
      TEMPO 2320/2324 21007KT 
     FM240000 VRB03KT CAVOK
