TAF MSLP 082125Z 0900/0924 25009KT 9999 FEW040CB SCT070 TX32/0918Z TN24/0910Z 
  FM090400 VRB02KT 9999 FEW037CB BKN060 
  TEMPO 0909/0912 8000 TSRA 
  FM091200 12005KT 9999 FEW060 
  FM091800 22010KT 9999 FEW037CB FEW060