TAF MSLP 191525Z 1918/2018 22010KT 9999 SCT027 FEW037CB TX33/1918Z TN24/2010Z 
  FM200000 VRB03KT 9999 FEW023 FEW037CB 
  TEMPO 2003/2006 13010G20KT 3000 +TSRA BKN020 SCT030CB 
  BECMG 2006/2008 02005KT 8000 RA FEW020 BKN060 
  FM200800 04005KT CAVOK