TAF MSLP 241525Z 2418/2518 13008KT 9999 FEW060 TX34/2418Z TN23/2510Z 
  FM250400 04005KT CAVOK