TAF MSLP 230325Z 2306/2406 32005KT CAVOK TX35/2319Z TN23/2310Z 
  FM231200 02012KT CAVOK 
  FM231800 22006G16KT 9999 FEW070 
  FM240000 32006KT CAVOK