TAF MSLP 031525Z 0318/0418 13008KT CAVOK TX35/0318Z TN25/0410Z 
  FM032000 VRB02KT 9999 FEW060 
  FM040500 02005KT CAVOK