TAF MSLP 062125Z 0700/0724 02012G22KT CAVOK TX33/0718Z TN25/0710Z 
  FM071700 02008KT 9999 FEW055 
  TEMPO 0720/0724 20008KT