TAF MSLP 180925Z 1812/1912 07005KT CAVOK TX34/1818Z TN23/1910Z 
  FM181800 21008KT 9999 FEW023 FEW040CB 
  FM190000 VRB05KT 9999 FEW027 FEW037CB 
  FM190600 05006KT 9999 FEW023 SCT060