TAF MSLP 181525Z 1818/1918 02006G16KT CAVOK TX34/1819Z TN22/1910Z 
  TEMPO 1820/1824 22012KT 
  FM190000 02010G25KT CAVOK