TAF MSLP 122125Z 1300/1324 25005KT CAVOK TX36/1219Z TN22/1312Z 
  FM130400 04008KT CAVOK 
  FM131800 13010KT 9999 FEW070