TAF MSLP 262125Z 2700/2724 33006KT 9999 SCT075 TX35/2718Z TN20/2711Z 
  FM270600 02006G17KT CAVOK 
  FM271400 02015G30KT CAVOK 
  TEMPO 2719/2724 9999 SCT070