TAF MSLP 250925Z 2512/2612 03010KT CAVOK TX34/2518Z TN23/2610Z 
  TEMPO 2521/2524 18007KT 9999 FEW047 
  FM260000 VRB07KT CAVOK 
  FM260600 04012KT CAVOK