TAF MSLP 160325Z 1606/1706 02010G25KT CAVOK TX34/1619Z TN19/1610Z