TAF MSLP 171525Z 1718/1818 22010KT 9999 SCT023 FEW040CB TX33/1718Z TN23/1810Z 
  PROB30 
  TEMPO 1720/1724 34010KT 6000 TSRA BKN020 SCT033CB 
  TEMPO 1800/1804 VRB02KT 9999 FEW020 FEW040CB SCT060 
  FM180400 02005KT CAVOK