TAF MSLP 090325Z 0906/1006 02012KT CAVOK TX34/0920Z TN20/0910Z 
  FM091200 02010G25KT CAVOK 
  TEMPO 0921/0924 22012KT