TAF MSLP 142125Z 1500/1524 VRB03KT 9999 FEW067 TX34/1518Z TN23/1510Z 
  FM150400 04006KT CAVOK 
  FM151800 22009KT 9999 FEW055