TAF MSLP 172140Z 1800/1824 VRB05KT 9999 FEW033 FEW037CB TX33/1819Z TN23/1810Z 
  TEMPO 1803/1806 14009KT 8000 TSRA FEW020 FEW033CB SCT055 
  FM180600 02005KT 9999 FEW027 FEW037CB 
  FM181200 03009KT 9999 FEW070 
  FM181800 19009KT 9999 FEW037CB SCT050