TAF AMD MSLP 222209Z 2300/2324 VRB01KT 9999 FEW023 FEW037CB TX33/2318Z TN24/2311Z 
  TEMPO 2301/2303 07007G20KT 4000 TSRA BKN023 SCT033CB 
  FM230300 05004KT 9999 FEW023 SCT070 
  FM231200 04004KT 9999 FEW023 
  FM231700 19004KT 9999 FEW027 FEW037TCU