TAF MSLP 040325Z 0406/0506 04004KT CAVOK TX34/0419Z TN23/0412Z 
     FM041800 20008KT 9999 FEW047 
     FM050000 VRB02KT 9999 SCT063
