TAF MSLP 160925Z 1612/1712 05006KT CAVOK TX33/1618Z TN26/1711Z 
  FM161800 21010KT 9999 FEW037CB SCT047 
  FM170000 25006KT 9999 SCT055 
  FM170600 05005KT CAVOK