TAF MSLP 142125Z 1500/1524 VRB04KT 9999 FEW070 TX33/1518Z TN24/1511Z 
  FM150400 02012KT CAVOK 
  FM151200 05010G20KT CAVOK