TAF MSLP 141545Z 1418/1518 21009KT 9999 FEW027 SCT055 TX33/1419Z TN25/1512Z 
  FM150000 VRB02KT 9999 FEW030 FEW037CB 
  TEMPO 1507/1510 03004KT 9999 BKN060 
  FM151000 04005KT 9999 FEW027 SCT060