TAF MSLP 281025Z 2812/0112 07003KT CAVOK TX33/2818Z TN21/0112Z 
  FM281800 22008KT 9999 FEW060 
  FM010000 VRB02KT CAVOK 
  TEMPO 0105/0110 9999 SCT065