TAF MSLP 282130Z 2900/2924 03012G24KT 9999 FEW077 TX35/2918Z TN23/2910Z 
  FM290600 02013KT CAVOK 
  TEMPO 2921/2923 21009KT 9999 FEW060