TAF MSLP 130325Z 1306/1406 02009KT CAVOK TX32/1319Z TN24/1310Z 
     FM132100 36010KT 9999 FEW070 
     FM140000 03009KT CAVOK
