TAF MSLP 170325Z 1706/1806 04004KT CAVOK TX36/1718Z TN26/1711Z 
  FM171800 23007KT 9999 FEW060 
  FM180000 VRB02KT 9999 FEW060