TAF MSLP 260340Z 2606/2706 04006KT 9999 FEW077 TX35/2618Z TN23/2610Z 
  FM261200 05009KT CAVOK 
  FM261800 21009KT 9999 SCT060 
  FM270000 VRB05KT 9999 FEW033 FEW037CB SCT055