TAF MSLP 130925Z 1312/1412 04006G20KT CAVOK TX36/1319Z TN23/1412Z 
  FM131800 13010KT 9999 FEW070 
  FM140000 02008KT CAVOK