TAF MSLP 231525Z 2318/2418 20008KT 9999 SCT027 FEW037CB TX34/2318Z TN24/2411Z 
  FM240000 VRB03KT 9999 FEW020 FEW037CB 
  TEMPO 2402/2405 07014KT 4000 TSRA BKN020 BKN033CB 
  FM240500 36003KT 9999 FEW020 FEW037CB SCT050 
  FM241100 03005KT CAVOK