TAF MSLP 132125Z 1400/1424 04006KT 9999 FEW065 TX33/1418Z TN23/1412Z 
  FM140500 04010KT CAVOK 
  FM141900 19008KT 9999 SCT055