TAF COR MSLP 231025Z 2312/2412 07004KT CAVOK TX34/2317Z TN24/2312Z 
  FM231600 19007KT 9999 FEW043 
  FM240000 VRB02KT 9999 FEW030 FEW037CB 
  TEMPO 2404/2406 07010KT 5000 TSRA BKN023 SCT033CB BKN060 
  FM240600 03004KT 9999 SCT070