TAF MSLP 280330Z 2806/2906 35008KT CAVOK TX33/2819Z TN22/2811Z 
      TEMPO 2820/2823 16008KT 9999 FEW070 
     FM290000 34009KT CAVOK
