TAF MSLP 051733Z 0518/0618 22010KT 9999 SCT030 TX34/0518Z TN24/0610Z 
  FM060000 25006KT 9999 FEW027 FEW040CB SCT060 
  PROB30 
  TEMPO 0603/0606 06012G25KT 3000 +TSRA BKN020 BKN033CB 
  FM060600 02005KT 9999 FEW070 
  TEMPO 0615/0618 VRB03KT 9999 FEW023