TAF MSLP 252125Z 2600/2624 06010G25KT 1500 +TSRA BKN017 BKN030CB TX36/2618Z TN25/2610Z 
  BECMG 2604/2606 VRB02KT 8000 TSRA FEW020 FEW040CB BKN060 
  FM260600 02005KT CAVOK 
  FM261800 18008KT 9999 FEW027 FEW040CB