TAF MSLP 122125Z 1300/1324 VRB02KT 9999 FEW070 TX35/1318Z TN24/1311Z 
  TEMPO 1304/1308 9999 SCT070 
  FM131200 09004KT CAVOK 
  FM131800 18006KT 9999 FEW033