TAF MSLP 162125Z 1700/1724 VRB03KT 9999 FEW067 TX33/1718Z TN20/1710Z 
  FM170600 04004KT CAVOK 
  FM171700 20009KT 9999 FEW050