TAF MSLP 131525Z 1318/1418 19009KT 9999 FEW066 TX34/1319Z TN24/1412Z 
  FM140000 VRB01KT 9999 FEW070 
  FM140600 04006KT CAVOK