TAF MSLP 151525Z 1518/1618 22010KT 9999 FEW040CB FEW043 TX34/1518Z TN25/1610Z 
  TEMPO 1600/1604 VRB03KT 9999 FEW060 
  FM160400 04005KT CAVOK