TAF MSLP 162125Z 1700/1724 VRB03KT 9999 FEW023 FEW037CB TX33/1718Z TN24/1711Z 
  FM170400 03005KT 9999 SCT067 
  FM171200 02005KT CAVOK 
  FM171800 22010KT 9999 SCT033 FEW037CB