TAF MSLP 010330Z 0106/0206 03012KT CAVOK TX34/0119Z TN22/0111Z 
      TEMPO 0120/0123 15007KT 9999 FEW060 
     FM020000 05006KT CAVOK
