TAF MSLP 251525Z 2518/2618 13010KT CAVOK TX35/2518Z TN25/2610Z 
  FM260000 VRB02KT 
  FM261000 02005KT CAVOK