TAF MSLP 170925Z 1712/1812 04005KT 9999 FEW055 TX33/1718Z TN23/1811Z 
  FM171700 20009KT 9999 SCT030 FEW037CB 
  TEMPO 1719/1722 7000 SHRA BKN025 FEW037CB 
  FM180000 VRB02KT 9999 FEW025 SCT047