TAF COR MSLP 051005Z 0512/0612 04005KT CAVOK TX36/0519Z TN24/0610Z 
  FM051800 13008KT 9999 SCT023 FEW040CB 
  PROB30 
  TEMPO 0602/0606 13010KT 5000 TSRA SCT023 SCT037CB BKN060 
  FM060600 VRB02KT 9999 FEW060