TAF MSLP 282125Z 0100/0124 VRB02KT 9999 FEW067 TX34/0118Z TN21/0110Z 
  FM010800 04005KT CAVOK 
  FM011800 22009KT 9999 FEW055