TAF MSLP 052125Z 0600/0624 VRB02KT 9999 SCT060 TX34/0617Z TN23/0611Z 
  FM060600 07004KT 9999 FEW070 
  FM061300 12006KT 9999 FEW050 
  FM061700 20008KT 9999 SCT050