TAF MSLP 140330Z 1406/1506 02010KT 9999 FEW077 TX32/1418Z TN24/1411Z 
     FM141800 21007KT 9999 FEW060 
     FM150000 03007KT CAVOK
