TAF MSLP 212125Z 2200/2224 VRB05KT 9999 FEW060 TX33/2218Z TN20/2210Z 
  FM220300 04004KT 9999 SCT070 
  FM221200 12005KT CAVOK 
  FM221800 21008KT 9999 FEW055