TAF MSLP 070329Z 0706/0806 04008KT CAVOK TX32/0718Z TN20/0711Z 
  FM071800 22009KT 9999 FEW070 
  FM080000 VRB04KT CAVOK