TAF MSLP 240350Z 2406/2506 05006KT 9999 FEW033 SCT055 TX34/2418Z TN24/2411Z 
  FM241200 03005KT CAVOK 
  FM241800 21009KT 9999 FEW055 
  FM250000 VRB04KT 9999 FEW023 FEW037CB