TAF MSLP 180410Z 1806/1906 05008KT 9999 FEW037CB SCT060 TX33/1819Z TN23/1810Z 
  FM181200 03009KT CAVOK 
  FM181800 19009KT 9999 FEW037CB SCT050 
  FM190000 23007KT 9999 FEW065