TAF MSLP 051525Z 0518/0618 02010G22KT 9999 FEW055 TX32/0518Z TN20/0610Z 
  FM060000 02015G27KT CAVOK