TAF MSLP 251525Z 2518/2618 18010KT CAVOK TX35/2518Z TN23/2610Z 
  FM260000 VRB03KT CAVOK 
  FM261000 04008KT CAVOK