TAF MSLP 090325Z 0906/1006 03002KT 9999 SCT070 TX33/0918Z TN23/0912Z 
     FM091200 06003KT 9999 FEW037 
     FM091800 21008KT 9999 SCT037 
      TEMPO 0901/0903 02006KT 7000 TSRA FEW027 FEW037CB SCT060
