TAF MSLP 182125Z 1900/1924 VRB02KT 9999 FEW070 TX35/1918Z TN23/1910Z 
  FM190400 02006KT CAVOK 
  FM191200 03007G17KT CAVOK 
  FM191800 22006G16KT 9999 FEW070