TAF MSLP 160325Z 1606/1706 09003KT 9999 SCT067 TX34/1619Z TN24/1611Z 
     FM161200 01003KT 9999 FEW020 
     FM161800 36007KT 9999 FEW043
