TAF MSLP 292125Z 3000/3024 02006G16KT CAVOK TX34/3018Z TN23/3010Z