TAF MSLP 181525Z 1818/1918 23008KT 9999 SCT027 FEW037CB TX33/1819Z TN23/1910Z 
  TEMPO 1819/1821 8000 SHRA 
  FM190000 VRB02KT 9999 FEW027 FEW037CB 
  FM190500 05006KT 9999 FEW023 FEW037CB SCT070 
  TEMPO 1908/1910 8000 TSRA