TAF MSLP 312130Z 0100/0124 VRB07KT 9999 FEW033 SCT060 TX34/0118Z TN23/0110Z 
  TEMPO 0106/0109 34012KT 5000 TSRA SCT020 FEW037CB BKN060 
  FM010900 02005KT 9999 SCT066 
  FM011800 19007KT 9999 FEW027 SCT050