TAF MSLP 252125Z 2600/2624 VRB05KT CAVOK TX32/2618Z TN20/2611Z 
  FM260700 04010KT CAVOK 
  FM261800 19008KT 9999 FEW070