TAF MSLP 050925Z 0512/0612 04005KT 9999 FEW023 TX34/0518Z TN24/0611Z 
  FM051700 22009KT 9999 FEW030 SCT050 
  FM060000 VRB03KT 9999 FEW030 FEW037CB SCT055 
  TEMPO 0603/0606 06012G25KT 3000 +TSRA BKN020 BKN033CB 
  FM060600 12006KT 8000 SHRA FEW023 FEW037CB BKN075