TAF MSLP 120925Z 1212/1312 06004KT 9999 SCT060 TX34/1218Z TN24/1310Z 
  FM121800 21009KT 9999 FEW023 SCT033 
  FM130000 VRB04KT 9999 FEW023 FEW037CB 
  TEMPO 1303/1306 06007KT 8000 RA FEW020 FEW037CB SCT070 
  FM130600 04003KT 9999 SCT070