TAF MSLP 180345Z 1806/1906 06007KT 9999 FEW070 TX33/1818Z TN22/1810Z 
     FM181200 05006KT 9999 FEW047 
     FM181800 21008KT 9999 SCT033 FEW037CB 
      TEMPO 1900/1904 18007KT 8000 TSRA FEW023 FEW037CB SCT055
