TAF MSLP 140325Z 1406/1506 04005KT CAVOK TX35/1418Z TN23/1410Z 
  FM141800 13008KT 9999 SCT023 FEW040CB 
  PROB30 
  TEMPO 1503/1506 07008KT 6000 TSRA FEW020 SCT037CB SCT070