TAF MSLP 180325Z 1806/1906 02005KT CAVOK TX36/1818Z TN25/1810Z 
  TEMPO 1820/1824 17010KT CAVOK 
  FM190000 VRB02KT CAVOK