TAF MSLP 220925Z 2212/2312 02010G20KT CAVOK TX35/2220Z TN22/2310Z 
  FM221800 22012KT 9999 FEW060 
  FM230200 02006KT CAVOK