TAF COR MSLP 241525Z 2418/2518 23009KT 9999 FEW037 TX34/2418Z TN25/2511Z 
  FM250000 VRB02KT 9999 FEW027 
  FM250600 03004KT 9999 SCT075 
  FM251200 05007KT CAVOK