TAF MSLP 060325Z 0606/0706 02010G20KT CAVOK TX33/0618Z TN26/0610Z 
  TEMPO 0613/0618 02015G28KT 
  FM061800 21004KT CAVOK 
  FM070000 02010KT CAVOK