TAF MSLP 071525Z 0718/0818 20008KT 9999 SCT017 FEW033CB BKN050 TX32/0718Z TN24/0810Z 
  TEMPO 0719/0722 16009KT 6000 RA SCT015 FEW030CB BKN050 
  TEMPO 0802/0805 09010KT 3000 +TSRA BKN020 SCT030CB OVC043 
  BECMG 0805/0809 12008KT 8000 RA SCT017 FEW033CB BKN060 
  FM080900 05005KT 9999 FEW020 SCT050