TAF MSLP 162125Z 1700/1724 VRB01KT 9999 FEW030 FEW040CB TX33/1718Z TN24/1711Z 
  FM170600 VRB01KT 9999 BKN065 
  FM171200 07003KT 9999 FEW030 
  FM171600 19007KT 9999 SCT030 FEW037CB 
  TEMPO 1722/1800 8000 TSRA