TAF MSLP 281525Z 2818/2918 02012G25KT CAVOK TX35/2818Z TN23/2910Z