TAF MSLP 310325Z 3106/0106 02010G20KT CAVOK TX35/3118Z TN22/3111Z 
      TEMPO 3113/3120 02015G30KT 
      TEMPO 3120/3124 18004KT 9999 FEW060 
     FM010000 03010G20KT CAVOK
