TAF MSLP 101525Z 1018/1118 22010KT 9999 FEW055 TX34/1018Z TN24/1110Z 
  FM110000 VRB03KT CAVOK 
  FM110400 03010KT CAVOK