TAF MSLP 221525Z 2218/2318 23007KT 9999 SCT030 FEW037CB TX33/2218Z TN24/2311Z 
  TEMPO 2220/2222 8000 SHRA 
  TEMPO 2301/2303 06010KT 5000 TSRA SCT027 SCT033CB BKN060 
  FM230300 05004KT 9999 FEW023 SCT070 
  FM231200 04004KT CAVOK