TAF MSLP 110325Z 1106/1206 01015G25KT CAVOK TX33/1119Z TN21/1112Z 
      TEMPO 1118/1124 9999 FEW070 
     FM120000 02014KT CAVOK
