TAF MSLP 170325Z 1706/1806 07003KT 9999 SCT060 TX32/1719Z TN24/1710Z 
     FM170900 03002KT CAVOK 
     FM171800 22008KT 9999 FEW030 
      TEMPO 1719/1721 09007KT 8000 SHRA SCT027 FEW037CB
