TAF MSLP 092125Z 1000/1024 VRB02KT 9999 FEW050 TX33/1018Z TN20/1010Z 
  FM100400 04004KT CAVOK 
  FM101800 20008KT 9999 SCT055