TAF MSLP 230325Z 2306/2406 05004KT 9999 FEW020 SCT075 TX33/2318Z TN24/2311Z 
  FM231200 04004KT 9999 FEW023 
  FM231700 19004KT 9999 SCT027 FEW037CB 
  TEMPO 2402/2404 06012KT 5000 TSRA SCT023 SCT033CB BKN060