TAF MSLP 021525Z 0218/0318 01020G30KT CAVOK TX32/0219Z TN21/0311Z