TAF MSLP 092125Z 1000/1024 13015G30KT 1000 +TSRA BKN017 BKN030CB TX35/1018Z TN24/1010Z 
  BECMG 1004/1006 04005KT 9999 RA FEW023 FEW040CB SCT070 
  FM100600 04005KT CAVOK 
  FM101800 13010KT 9999 FEW060