TAF MSLP 060325Z 0606/0706 02003KT 9999 FEW070 TX33/0619Z TN27/0612Z 
     FM061200 03007KT CAVOK 
     FM061800 19008KT 9999 SCT055 
     FM070000 VRB04KT 9999 FEW060
