TAF MSLP 051000Z 0512/0612 04006KT 9999 SCT060 TX32/0518Z TN24/0610Z 
  FM051800 21009KT 9999 FEW023 SCT055 
  FM060000 VRB02KT 9999 FEW060 
  FM060600 04008KT 9999 FEW077