TAF MSLP 020925Z 0212/0312 01015G35KT CAVOK TX33/0218Z TN17/0310Z 
  PROB30 
  TEMPO 0221/0300 21005KT CAVOK 
  FM030000 02015G25KT CAVOK