TAF MSLP 031525Z 0318/0418 22010KT 9999 FEW043 TX37/0318Z TN27/0410Z 
  FM040000 VRB02KT 9999 SCT060 
  FM040600 04010KT CAVOK