TAF MSLP 070930Z 0712/0812 04005KT 8000 RA SCT017 BKN060 TX34/0718Z TN23/0810Z 
  FM071800 13007KT 9999 FEW023 FEW037CB SCT047 
  TEMPO 0721/0723 16008KT 7000 RA SCT017 FEW037CB SCT043 
  FM080000 VRB05KT 9999 SCT023 FEW037CB BKN050 
  TEMPO 0807/0810 09008KT 5000 TSRA SCT017 FEW033CB OVC050