TAF MSLP 150325Z 1506/1606 02009KT CAVOK TX33/1518Z TN24/1511Z 
  FM151800 16007KT 9999 FEW060 
  FM160000 VRB04KT 9999 FEW077