TAF MSLP 061525Z 0618/0718 22012KT CAVOK TX33/0619Z TN26/0712Z 
  FM070000 02010KT CAVOK