TAF MSLP 251525Z 2518/2618 22006G16KT CAVOK TX32/2518Z TN20/2610Z 
  FM260000 34012KT CAVOK 
  FM260700 04010KT CAVOK