TAF MSLP 130325Z 1306/1406 VRB02KT 9999 SCT070 TX35/1318Z TN24/1311Z 
  FM131200 09004KT CAVOK 
  FM131800 18006KT 9999 FEW033 
  TEMPO 1402/1408 06008KT 7000 TSRA SCT023 FEW037CB BKN060