TAF MSLP 230925Z 2312/2412 02012KT CAVOK TX35/2319Z TN23/2410Z 
  FM231800 22006G16KT 9999 FEW070 
  FM240000 32006KT CAVOK 
  FM240400 02006KT CAVOK