TAF MSLP 112200Z 1200/1224 VRB04KT 9999 FEW077 TX34/1218Z TN23/1211Z 
  FM120600 04008KT CAVOK 
  FM121800 21008KT 9999 FEW055