TAF MSLP 240925Z 2412/2512 04004KT CAVOK TX34/2418Z TN23/2510Z 
  FM241800 20008KT 9999 SCT055 
  FM250000 VRB02KT 9999 FEW067 
  FM250600 04004KT CAVOK