TAF MSLP 210325Z 2106/2206 VRB01KT CAVOK TX35/2116Z TN25/2110Z 
  FM211600 17007KT 9999 FEW050 
  FM220000 VRB01KT 9999 FEW065