TAF MSLP 140925Z 1412/1512 03005KT CAVOK TX34/1418Z TN24/1510Z 
  FM141800 20010KT 9999 SCT033 
  FM150100 28005KT 9999 FEW060 
  FM150400 03005KT CAVOK