TAF MSLP 270925Z 2712/2812 04008KT CAVOK TX36/2718Z TN25/2810Z 
  FM271800 13010KT 9999 FEW040CB SCT070 
  PROB30 
  TEMPO 2804/2807 34008KT 8000 RA SCT020 FEW040CB BKN060 
  FM280700 04006KT 9999 FEW070