TAF MSLP 030325Z 0306/0406 06005KT 9999 SCT070 TX33/0318Z TN22/0311Z 
     FM031200 02008KT CAVOK 
     FM031800 040012KT 9999 FEW060 
     FM040000 01009KT CAVOK
