TAF MSLP 261550Z 2618/2718 21008KT 9999 FEW040CB FEW043 TX35/2619Z TN25/2712Z 
  FM270000 VRB02KT 9999 FEW033 
  FM270600 04004KT 9999 BKN065 
  FM271200 03006KT 9999 FEW077