TAF MSLP 202125Z 2100/2124 VRB01KT 9999 FEW060 TX35/2116Z TN25/2110Z 
  FM210400 03007KT CAVOK 
  FM211600 17007KT 9999 FEW050