TAF MSLP 071525Z 0718/0818 18010KT 9999 FEW060 TX33/0718Z TN22/0810Z 
  FM080400 04005KT CAVOK