TAF MSLP 200325Z 2006/2106 03005KT CAVOK TX33/2018Z TN21/2010Z 
  FM201800 20010KT 9999 FEW053 
  FM210000 VRB03KT CAVOK