TAF MSLP 180325Z 1806/1906 05007KT 9999 SCT060 TX33/1818Z TN25/1811Z 
     FM181200 04004KT CAVOK 
     FM181800 22008KT 9999 FEW030 FEW037CB SCT055 
     FM190000 VRB05KT 9999 FEW037 SCT060
