TAF MSLP 301525Z 3018/3118 22009KT 9999 FEW055 TX34/3018Z TN20/3110Z 
  FM310000 VRB03KT 9999 FEW067 
  FM310400 02010KT CAVOK