TAF MSLP 030325Z 0306/0406 04008KT 9999 SCT077 TX33/0319Z TN23/0312Z 
     FM030900 06005KT CAVOK 
     FM031800 22008KT 9999 FEW047
