TAF MSLP 301000Z 3012/3112 04014KT CAVOK TX36/3018Z TN25/3110Z 
  FM301800 13010KT 9999 FEW070 
  FM310300 34005KT CAVOK 
  FM310800 04009KT CAVOK