TAF MSLP 281000Z 2812/2912 02012KT CAVOK TX33/2818Z TN20/2910Z 
  TEMPO 2815/2819 02012G24KT 
  FM281900 02010KT 9999 SCT055 
  FM290200 02012KT CAVOK