TAF MSLP 080925Z 0812/0912 02010G20KT CAVOK TX33/0818Z TN21/0910Z 
  TEMPO 0820/0824 21008KT 
  FM090000 02012G24KT CAVOK