TAF MSLP 190325Z 1906/2006 02005KT CAVOK TX36/1918Z TN25/1910Z 
  TEMPO 1920/1924 17010KT CAVOK 
  FM200200 32005KT CAVOK