TAF MSLP 081525Z 0818/0918 20009KT 9999 SCT033 FEW037CB TX33/0818Z TN25/0911Z 
  FM090000 VRB02KT 9999 FEW065 
  FM090400 VRB02KT 9999 FEW037CB BKN065 
  TEMPO 0907/0911 RA 
  FM091100 03003KT 9999 SCT070