TAF MSLP 222125Z 2300/2324 VRB03KT 9999 FEW070 TX35/2318Z TN22/2310Z 
  FM230400 04012KT CAVOK 
  FM231200 02010G27KT CAVOK 
  FM231800 22010G25KT 9999 SCT060