TAF MSLP 061025Z 0612/0712 02015G28KT CAVOK TX33/0618Z TN26/0612Z 
  FM061800 21004KT CAVOK 
  FM070000 02010KT CAVOK