TAF MSLP 250325Z 2506/2606 04006KT CAVOK TX34/2518Z TN23/2510Z 
  FM251800 20010KT 9999 FEW055 
  FM260000 30004KT 9999 FEW067 
  FM260400 04006KT CAVOK