TAF MSLP 100925Z 1012/1112 02010KT CAVOK TX34/1018Z TN22/1111Z 
  FM101900 22010KT 9999 FEW060 
  FM110000 VRB03KT CAVOK 
  FM110300 03010KT CAVOK