TAF MSLP 202200Z 2100/2124 VRB03KT 9999 FEW067 TX33/2118Z TN20/2110Z 
  FM210800 07004KT CAVOK 
  FM211800 22009KT 9999 FEW055