TAF MSLP 260925Z 2612/2712 34005KT CAVOK TX33/2618Z TN20/2710Z 
  FM261200 02005KT CAVOK 
  FM261800 22010KT 9999 SCT060 
  FM270200 02010T CAVOK