TAF MSLP 041525Z 0418/0518 21006KT CAVOK TX32/0418Z TN20/0511Z 
  FM050000 02006KT CAVOK 
  TEMPO 0515/0518 02010G20KT