TAF MSLP 110325Z 1106/1206 VRB02KT 9999 FEW020 FEW040CB SCT060 TX32/1118Z TN24/1110Z 
  PROB30 
  TEMPO 1108/1110 13010KT 6000 TSRA STC020 SCT033CB BKN040 
  FM111000 VRB02KT 9999 FEW020 FEW040CB SCT060 
  FM111800 22010KT 9999 FEW020 FEW040CB 
  FM120000 25006KT 9999 FEW060