TAF MSLP 200325Z 2006/2106 03004KT 9999 SCT070 TX36/2018Z TN26/2010Z 
  FM201100 03010KT CAVOK 
  FM201700 21006KT 9999 SCT047 
  FM210000 VRB02KT 9999 FEW070