TAF MSLP 182125Z 1900/1924 02010G25KT CAVOK TX34/1819Z TN22/1910Z 
  TEMPO 1920/1924 9999 FEW070