TAF MSLP 220325Z 2206/2306 04006KT CAVOK TX33/2218Z TN23/2212Z 
     FM221800 21007KT 9999 SCT055 
     FM230000 04004KT 9999 FEW067
