TAF MSLP 080330Z 0806/0906 06005KT CAVOK TX36/0818Z TN25/0810Z 
  FM081800 19007KT 9999 FEW055 
  FM090000 VRB02KT 9999 FEW040CB SCT077