TAF MSLP 210925Z 2112/2212 02007KT CAVOK TX34/2117Z TN25/2210Z 
  FM211800 22009KT 9999 FEW047 
  FM220000 VRB02KT 9999 FEW050 SCT075 
  FM220400 04004KT CAVOK