TAF MSLP 132141Z 1400/1424 27004KT 9999 FEW030 FEW037CB TX33/1417Z TN25/1412Z 
  FM140400 VRB02KT 9999 FEW030 FEW037CB BKN060 
  TEMPO 1408/1410 06010KT 8000 TSRA 
  FM141300 07004KT 9999 SCT070 
  FM141600 20008KT 9999 SCT037