TAF MSLP 102125Z 1100/1124 VRB03KT CAVOK TX34/1118Z TN24/1110Z 
  FM110400 03007KT CAVOK 
  FM111800 22010KT 9999 FEW055