TAF MSLP 142200Z 1500/1524 VRB05KT 9999 FEW023 FEW037CB SCT060 TX34/1519Z TN24/1510Z 
  TEMPO 1503/1507 04006KT 5000 TSRA SCT020 FEW033CB BKN050 
  FM150700 02006KT 9999 FEW027 FEW040CB 
  FM151200 03004KT CAVOK 
  FM151800 22008KT 9999 FEW023 FEW040CB SCT070