TAF MSLP 070325Z 0706/0806 02008KT CAVOK TX33/0718Z TN25/0710Z 
  TEMPO 0715/0718 02010G20KT 
  TEMPO 0720/0724 20008KT 9999 FEW055 
  FM080000 02007KT CAVOK