TAF MSLP 030325Z 0306/0406 01015G25KT CAVOK TX32/0319Z TN21/0311Z 
  TEMPO 0320/0324 20004KT 
  FM040000 02008KT CAVOK