TAF MSLP 040925Z 0412/0512 07005KT 9999 FEW030 SCT067 TX33/0418Z TN24/0510Z 
  FM041800 21009KT 9999 FEW030 FEW037CB SCT055 
  TEMPO 0423/0503 04010KT 5000 TSRA SCT020 SCT033CB BKN047 
  FM050300 04004KT 9999 FEW025 FEW037CB SCT055 
  TEMPO 0508/0511 6000 TSRA SCT020 FEW033CB BKN047