TAF MSLP 300325Z 3006/3106 02010KT CAVOK TX34/3018Z TN23/3010Z 
  FM301200 02010G20KT CAVOK 
  FM301800 22006G16KT CAVOK 
  FM310000 36010KT CAVOK