TAF MSLP 100325Z 1006/1106 03009KT CAVOK TX34/1019Z TN22/1011Z 
  FM101900 22008KT 9999 FEW043 
  TEMPO 1100/1103 VRB03KT CAVOK 
  FM110300 04010KT CAVOK