TAF MSLP 311525Z 3118/0118 22012KT 9999 SCT030 TX36/3118Z TN25/0110Z 
  FM010000 VRB02KT 9999 SCT030 FEW040CB 
  TEMPO 0106/0109 34012KT 5000 TSRA SCT020 FEW037CB BKN060 
  FM010900 02005KT 9999 FEW070