TAF MSLP 141025Z 1412/1512 09004KT 9999 FEW027 TX35/1418Z TN25/1412Z 
  FM141700 21005KT 9999 SCT030 FEW037CB 
  TEMPO 1423/1502 06014KT 5000 TSRA BKN027 SCT033CB BKN060 
  FM150200 04004KT 9999 FEW023 SCT070