TAF MSLP 080925Z 0812/0912 03005KT CAVOK TX36/0818Z TN25/0810Z 
  FM081800 19007KT 9999 FEW055 
  FM090000 VRB02KT 9999 FEW037 FEW040CB 
  TEMPO 0903/0906 06008KT 8000 TSRA FEW033 FEW037CB SCT077 
  FM090600 04003KT 9999 FEW077