TAF MSLP 290925Z 2912/3012 02010KT CAVOK TX35/2918Z TN23/3010Z 
  TEMPO 2921/2923 21009KT 9999 FEW060 
  FM300000 VRB07KT CAVOK