TAF MSLP 070925Z 0712/0812 04005KT CAVOK TX36/0718Z TN25/0810Z 
  FM071800 21008KT 9999 FEW033 
  FM080400 04005KT CAVOK