TAF MSLP 160925Z 1612/1712 02010G25KT CAVOK TX34/1619Z TN19/1710Z 
  TEMPO 1620/1624 22012KT 9999 FEW070