TAF MSLP 232132Z 2400/2424 VRB01KT 9999 FEW070 TX35/2418Z TN21/2411Z 
  FM240400 07004KT CAVOK 
  FM241600 13006KT 9999 SCT047 
  TEMPO 2419/2424 19012KT