TAF MSLP 011525Z 0118/0218 22010KT 9999 FEW060 TX35/0118Z TN21/0210Z 
  TEMPO 0200/0204 VRB02KT 
  FM020400 02008KT CAVOK