TAF MSLP 022125Z 0300/0324 01020G30KT CAVOK TX31/0319Z TN21/0311Z 
  TEMPO 0321/0324 20004KT