TAF MSLP 082125Z 0900/0924 VRB02KT 9999 SCT020 FEW037CB BKN043 TX33/0918Z TN23/0910Z 
  TEMPO 0903/0906 12006G16KT 5000 TSRA 
  FM090600 VRB02KT 8000 RA FEW020 FEW040CB BKN060 
  FM091200 12005KT 9999 FEW020 
  FM091700 22010KT SCT020 FEW040CB SCT043 
  TEMPO 0920/0924 34012KT 5000 TSRA