TAF MSLP 071525Z 0718/0818 21008KT 9999 FEW033 TX36/0718Z TN25/0810Z 
  FM080000 VRB03KT 9999 FEW050 
  PROB40 
  TEMPO 0805/0808 16008KT 6000 TSRA BKN020 SCT033CB 
  FM080800 04005KT CAVOK