TAF MSLP 290325Z 2906/3006 02009KT CAVOK TX34/2918Z TN23/2912Z 
     FM291800 19008KT 9999 FEW055 
     FM300000 VRB03KT CAVOK
