TAF MSLP 020325Z 0206/0306 02008KT CAVOK TX35/0218Z TN21/0210Z 
  FM021800 22010KT 9999 FEW060 
  FM030200 04005KT CAVOK