TAF MSLP 090325Z 0906/1006 VRB02KT 9999 FEW020 SCT070 TX33/0918Z TN23/0910Z 
  PROB30 
  TEMPO 0908/0912 32004KT 8000 RA SCT020 BKN060 
  FM091200 12005KT 9999 FEW020 
  FM091700 22010KT 9999 SCT020 FEW040CB SCT043 
  TEMPO 0922/1002 34012KT 5000 TSRA SCT023 BKN033CB 
  FM100200 25006KT 9999 FEW020 FEW040CB SCT060