TAF MSLP 082125Z 0900/0924 VRB02KT 9999 FEW030 FEW040CB TX36/0917Z TN25/0912Z 
  PROB40 
  TEMPO 0904/0906 06008KT 8000 TSRA SCT027 FEW033CB BKN060 
  FM090600 04006KT 9999 SCT070 
  FM091200 05008KT CAVOK 
  FM091800 18006KT 9999 FEW060