TAF MSLP 221525Z 2218/2318 22010KT 9999 FEW055 TX35/2219Z TN24/2310Z 
  FM230000 VRB02KT 9999 FEW067 
  FM230400 02007KT CAVOK