TAF MSLP 210340Z 2106/2206 03005KT 9999 SCT060 TX33/2119Z TN24/2112Z 
  FM211100 03006KT 9999 FEW070 
  FM211800 21008KT 9999 FEW060 
  FM220000 VRB04KT 9999 FEW023 FEW037CB SCT060