TAF MSLP 130925Z 1312/1412 04005KT CAVOK TX34/1318Z TN23/1410Z 
  FM131600 13010KT 9999 FEW040 
  FM132200 22010KT 9999 FEW020 SCT070 
  TEMPO 1403/1407 11010KT 8000 TSRA SCT020 FEW037CB BKN060 
  FM140700 02005KT 9999 FEW070