TAF MSLP 191525Z 1918/2018 22010KT 9999 FEW055 TX35/1918Z TN23/2010Z 
  FM200000 02006KT 9999 FEW050 SCT075 
  FM200600 04006KT CAVOK