TAF MSLP 082125Z 0900/0924 VRB01KT CAVOK TX32/0917Z TN20/0911Z 
  TEMPO 0904/0909 9999 SCT078 
  FM090900 02007KT CAVOK 
  FM091700 20008KT 9999 FEW060