TAF MSLP 052125Z 0600/0624 02010G20KT CAVOK TX33/0618Z TN26/0610Z 
  TEMPO 0613/0618 02015G28KT 
  FM061800 21004KT CAVOK