TAF MSLP 260925Z 2612/2712 05006KT CAVOK TX34/2618Z TN24/2711Z 
  FM261800 19008KT 9999 FEW070 
  FM270000 21007KT 9999 FEW077 
  FM270600 06005KT CAVOK