TAF MSLP 220400Z 2206/2306 04012KT CAVOK TX35/2218Z TN25/2210Z 
  TEMPO 2215/2217 03010G20KT CAVOK 
  FM221700 21009KT 9999 FEW060 
  FM230000 VRB06KT CAVOK