TAF MSLP 110325Z 1106/1206 03007KT CAVOK TX34/1118Z TN24/1110Z 
  FM111800 22010KT 9999 FEW055 
  FM120000 VRB03KT CAVOK