TAF MSLP 240325Z 2406/2506 07003KT CAVOK TX35/2418Z TN21/2411Z 
  FM241600 13006KT 9999 SCT047 
  TEMPO 2419/2424 19012KT 
  FM250000 VRB02KT 9999 FEW065