TAF MSLP 152148Z 1600/1624 06006KT 8000 TSRA SCT023 FEW037CB TX34/1618Z TN24/1612Z 
  TEMPO 1605/1609 07015G25KT 2000 +TSRA BKN023 BKN030CB 
  FM161100 02008KT 9999 FEW023 SCT070 
  FM161800 21010KT 9999 FEW027 FEW07CB 
  TEMPO 1620/1622 8000 TSRA SCT027 FEW037CB