TAF MSLP 300925Z 3012/3112 02010G25KT CAVOK TX34/3018Z TN20/3110Z 
  FM301800 22006G16KT CAVOK 
  FM310000 36006G16KT CAVOK