TAF MSLP 011525Z 0118/0218 23010KT 9999 SCT030 TX33/0118Z TN26/0212Z 
  FM020000 VRB01KT 9999 FEW027 FEW037CB 
  TEMPO 0207/0209 06010KT 6000 TSRA SCT023 FEW037CB BKN060 
  FM020900 10004KT 9999 FEW030