TAF MSLP 110330Z 1106/1206 05006KT 9999 FEW070 TX33/1118Z TN22/1110Z 
  FM111200 04008KT CAVOK 
  TEMPO 1120/1123 21007KT 9999 FEW055 
  FM120000 02013G23KT CAVOK