TAF MSLP 092129Z 1000/1024 VRB02KT 9999 FEW070 TX33/1017Z TN23/1011Z 
  TEMPO 1006/1011 VRB03KT 9999 SCT070 
  FM101100 03007KT CAVOK 
  FM101700 20006KT 9999 FEW047