TAF MSLP 010325Z 0106/0206 04005KT CAVOK TX34/0218Z TN21/0110Z 
  FM011800 22009KT 9999 FEW055 
  FM020000 VRB02KT 9999 FEW067