TAF MSLP 131525Z 1318/1418 13010KT CAVOK TX35/1318Z TN23/1410Z 
  TEMPO 1320/1324 VRB02KT 9999 FEW030 FEW040CB 
  BECMG 1400/1404 06012G35KT 1000 +TSRA BKN010 BKN027CB 
  FM140400 02005KT CAVOK