TAF MSLP 020925Z 0212/0312 04008KT CAVOK TX33/0218Z TN25/0310Z 
  FM021800 13012KT 9999 SCT047 
  TEMPO 0300/0304 25005KT 9999 FEW060 
  FM030400 04005KT CAVOK