TAF MSLP 060925Z 0612/0712 02007KT 9999 FEW065 TX34/0618Z TN23/0710Z 
  FM061800 22009KT 9999 FEW033 SCT055 
  PROB40 
  TEMPO 0619/0621 8000 SHRA 
  FM070000 VRB03KT 9999 FEW025 SCT060