TAF MSLP 172125Z 1800/1824 02005KT CAVOK TX36/1818Z TN25/1810Z 
  TEMPO 1820/1824 17010KT CAVOK