TAF MSLP 251525Z 2518/2618 23007KT 9999 FEW060 TX33/2518Z TN20/2611Z 
  FM260000 VRB01KT CAVOK