TAF COR MSLP 101151Z 1012/1112 04004KT CAVOK TX33/1018Z TN20/1110Z 
  FM101800 20008KT 9999 SCT055 
  FM110000 VRB02KT 9999 FEW067 
  FM110400 04004KT CAVOK