TAF MSLP 241525Z 2418/2518 21009KT 9999 FEW055 TX35/2418Z TN21/2512Z 
  FM250000 VRB02KT 9999 FEW065 
  FM250600 06004KT CAVOK