TAF MSLP 112125Z 1200/1224 VRB03KT 9999 FEW060 TX35/1218Z TN23/1210Z 
  FM120500 02012G25KT CAVOK