TAF COR MSLP 072204Z 0800/0824 VRB03KT CAVOK TX33/0818Z TN20/0810Z 
  FM080400 02008KT CAVOK 
  FM081800 13008KT 9999 FEW060