TAF MSLP 172125Z 1800/1824 VRB05KT 9999 FEW077 TX35/1818Z TN22/1810Z 
  FM180600 06005KT CAVOK 
  FM181800 22006KT 9999 FEW066