TAF MSLP 210925Z 2112/2212 07004KT CAVOK TX33/2118Z TN20/2210Z 
  FM211800 22009KT 9999 FEW055 
  FM220000 VRB03KT 9999 FEW067 
  FM220400 04004KT CAVOK