TAF AMD MSLP 252147Z 2600/2624 VRB02KT 9999 FEW070 TX36/2618Z TN25/2610Z 
  TEMPO 2604/2607 06010G25KT 3000 +TSRA SCT017 BKN030CB 
  FM260700 VRB02KT 9999 FEW020 FEW040CB SCT060 
  FM261200 04005KT CAVOK 
  FM261800 22010KT 9999 FEW060