TAF MSLP 070325Z 0706/0806 05004KT 9999 SCT067 TX35/0717Z TN23/0710Z 
  FM071000 07005KT CAVOK 
  FM071700 20009KT 9999 FEW047 
  FM080000 VRB02KT 9999 SCT060