TAF MSLP 122125Z 1300/1324 VRB02KT 9999 FEW070 TX34/1318Z TN23/1310Z 
  FM130400 04005KT CAVOK 
  FM131600 13010KT 9999 FEW040