TAF MSLP 131525Z 1318/1418 21009KT 9999 FEW055 TX35/1318Z TN23/1410Z 
  FM140000 VRB03KT 9999 FEW067 
  FM140400 02006KT CAVOK