TAF MSLP 250410Z 2506/2606 02010KT CAVOK TX34/2518Z TN23/2510Z 
  TEMPO 2521/2524 18007KT 9999 FEW047 
  FM260000 VRB07KT CAVOK