TAF MSLP 091525Z 0918/1018 22009KT 9999 FEW060 TX33/0919Z TN20/1012Z 
  FM100000 VRB02KT 9999 FEW070 
  FM101000 03004KT CAVOK