TAF MSLP 152125Z 1600/1624 02010KT 9999 SCT077 TX35/1619Z TN25/1611Z 
  PROB40 
  TEMPO 1602/1605 06009KT 7000 SHRA FEW033 FEW037CB SCT060 
  FM160500 03009KT 9999 SCT070 
  FM161000 02006KT CAVOK