TAF MSLP 120340Z 1206/1306 06005KT 9999 FEW020 SCT040 TX34/1218Z TN24/1210Z 
  FM121200 03005KT 9999 SCT070 
  FM121800 21009KT 9999 FEW023 SCT033 
  FM130000 VRB04KT 9999 FEW023 FEW037CB