TAF MSLP 220325Z 2206/2306 02010KT CAVOK TX35/2220Z TN22/2210Z 
  FM221200 02006G16KT CAVOK 
  FM221800 22012KT 9999 FEW060 
  FM230000 02006KT CAVOK