TAF MSLP 020325Z 0206/0306 36015G39KT CAVOK TX33/0218Z TN17/0210Z