TAF MSLP 212125Z 2200/2224 25006KT 9999 FEW027 FEW040CB TX33/2219Z TN23/2210Z 
  PROB30 
  TEMPO 2203/2206 13010G20KT 5000 TSRA SCT017 SCT037CB BKN043 
  FM220600 02005KT CAVOK 
  FM221800 22010KT 9999 FEW030 FEW040CB