TAF MSLP 170325Z 1706/1806 03010KT CAVOK TX33/1719Z TN23/1712Z 
  TEMPO 1719/1724 18006KT 9999 FEW060 
  FM180000 VRB02KT CAVOK