TAF MSLP 302125Z 3100/3124 VRB01KT CAVOK TX33/3117Z TN23/3110Z 
  FM310300 02007KT CAVOK 
  TEMPO 3113/3118 04007KT 
  FM311800 18006KT 9999 FEW060