TAF MSLP 120925Z 1212/1312 04005KT CAVOK TX34/1218Z TN25/1310Z 
  FM121800 19008KT 9999 FEW040 
  FM130000 VRB04KT 9999 FEW027 FEW037CB 
  PROB40 
  TEMPO 1303/1306 09014KT 8000 TSRA SCT033 FEW033CB SCT055 
  FM130600 05005KT 9999 SCT077