TAF MSLP 011555Z 0118/0218 22010KT 9999 FEW043 TX36/0118Z TN25/0210Z 
  FM020100 VRB05KT CAVOK 
  FM020400 03006KT CAVOK