TAF MSLP 121529Z 1218/1318 23011KT 9999 FEW070 TX35/1219Z TN23/1311Z 
  FM130200 07003KT CAVOK 
  FM131400 03011KT CAVOK