TAF MSLP 042125Z 0500/0524 25005KT CAVOK TX32/0418Z TN20/0410Z 
  FM050400 02010G25KT CAVOK 
  TEMPO 0521/0524 22006G20KT