TAF MSLP 060325Z 0606/0706 06008KT 8000 TSRA SCT023 FEW037CB SCT060 TX34/0618Z TN24/0610Z 
  FM060800 02005KT 9999 FEW070 
  TEMPO 0615/0618 VRB03KT 9999 FEW023 
  FM061800 22010KT 9999 SCT027 FEW040CB 
  FM070000 VRB02KT 9999 FEW070