TAF MSLP 180925Z 1812/1912 05007KT CAVOK TX35/1818Z TN22/1910Z 
  FM181800 22006KT 9999 FEW066 
  FM190000 VRB04KT CAVOK 
  FM190600 04006KT CAVOK