TAF MSLP 210336Z 2106/2206 04010G20KT CAVOK TX36/2118Z TN23/2111Z 
  TEMPO 2121/2123 16007KT 9999 FEW055 
  FM220000 04009KT CAVOK