TAF MSLP 121525Z 1218/1318 02010KT 9999 FEW055 TX35/1218Z TN22/1310Z 
  TEMPO 1220/1224 20008KT 
  FM130000 04009KT CAVOK 
  TEMPO 1315/1318 02011G22KT