TAF MSLP 070335Z 0706/0806 06005KT 9999 SCT060 TX32/0718Z TN23/0710Z 
     FM071200 03004KT 9999 FEW077 
     FM071800 21008KT 9999 FEW023 SCT060 
     FM080000 VRB05KT 9999 FEW037CB SCT047
