TAF MSLP 170925Z 1712/1812 04004KT CAVOK TX33/1718Z TN20/1810Z 
  FM171700 20009KT 9999 FEW050 
  FM180000 33004KT 9999 SCT067 
  FM180600 04004KT CAVOK