TAF MSLP 171525Z 1718/1818 19008KT 9999 FEW060 TX33/1719Z TN23/1812Z 
  FM180000 VRB02KT 9999 FEW077 
  FM180600 02010G20KT CAVOK 
  FM181200 04008KT CAVOK