TAF MSLP 210925Z 2112/2212 05006KT 9999 FEW077 TX33/2119Z TN24/2211Z 
  FM211800 21008KT 9999 FEW060 
  FM220000 VRB04KT 9999 FEW023 FEW037CB SCT060 
  TEMPO 2204/2208 06015G27KT 3000 +TSRA SCT017 SCT033CB BKN050