TAF MSLP 201540Z 2018/2118 21009KT 9999 FEW047 TX33/2019Z TN23/2112Z 
  FM210000 VRB02KT 9999 FEW060 
  TEMPO 2105/2112 SCT060 
  FM211200 04007KT 9999 FEW077