TAF MSLP 212125Z 2200/2224 02010KT CAVOK TX35/2120Z TN22/2210Z 
  FM221200 02006G16KT CAVOK 
  FM221800 22012KT 9999 FEW060