TAF MSLP 190325Z 1906/2006 04005KT CAVOK TX33/1918Z TN21/1910Z 
  FM191800 13010KT CAVOK 
  TEMPO 1920/1924 25006KT 9999 FEW070 
  FM200000 VRB02KT CAVOK