TAF MSLP 071000Z 0712/0812 03008KT CAVOK TX32/0718Z TN20/0811Z 
  FM071800 22009KT 9999 FEW070 
  FM080000 VRB04KT CAVOK 
  FM080600 04007KT CAVOK