TAF MSLP 151525Z 1518/1618 18010KT CAVOK TX33/1518Z TN21/1610Z 
  FM160000 VRB03KT CAVOK 
  FM161200 04005KT CAVOK 
  FM161800 18010KT 9999 FEW070