TAF MSLP 062125Z 0700/0724 VRB02KT 9999 FEW027 TX36/0718Z TN25/0711Z 
  TEMPO 0704/0712 9999 SCT070 
  FM071800 21008KT 9999 FEW033