TAF MSLP 010325Z 0106/0206 02012G22KT CAVOK TX33/0118Z TN19/0110Z 
  FM011200 02015G27KT CAVOK