TAF MSLP 192125Z 2000/2024 VRB03KT 9999 FEW023 FEW037CB TX33/2018Z TN24/2010Z 
  TEMPO 2004/2008 13014KT 4000 TSRA BKN020 SCT033CB 
  FM200800 06003KT 9999 FEW020 FEW037CB SCT060 
  FM201200 04005KT CAVOK 
  FM201800 22010KT 9999 SCT033 FEW037CB