TAF MSLP 012135Z 0200/0224 VRB03KT 9999 FEW067 TX35/0218Z TN25/0210Z 
  FM020400 03006KT CAVOK 
  FM021800 22010KT 9999 FEW043