TAF MSLP 142125Z 1500/1524 VRB05KT 8000 TSRA SCT023 FEW037CB BKN070 TX35/1519Z TN25/1512Z 
  FM150200 04004KT 9999 FEW023 SCT070 
  FM151200 03006KT CAVOK 
  FM151800 19007KT 9999 FEW057