TAF MSLP 072130Z 0800/0824 02015G25KT CAVOK TX33/0818Z TN21/0810Z