TAF MSLP 232125Z 2400/2424 VRB02KT 9999 SCT065 TX34/2418Z TN23/2410Z 
  FM240600 04004KT CAVOK 
  FM241800 20008KT 9999 SCT055