TAF MSLP 150925Z 1512/1612 04010KT CAVOK TX35/1519Z TN25/1610Z 
  FM151800 02005KT 9999 FEW040CB FEW060 
  FM160000 02010KT CAVOK