TAF MSLP 311545Z 3118/0118 02013KT CAVOK TX33/3118Z TN19/0112Z 
  TEMPO 3120/3124 20009KT 9999 FEW060 
  FM010000 35008KT CAVOK 
  FM011300 02015G25KT CAVOK