TAF MSLP 131025Z 1312/1412 04010G20KT CAVOK TX34/1319Z TN24/1312Z 
  FM131700 20004KT 9999 SCT070 
  FM140000 VRB01KT 9999 FEW070 
  FM140400 04006KT CAVOK