TAF MSLP 072125Z 0800/0824 VRB03KT 9999 SCT023 FEW037CB TX31/0818Z TN24/0810Z 
  TEMPO 0803/0806 09010KT 3000 +TSRA BKN020 SCT030CB OVC043 
  BECMG 0806/0809 12008KT 8000 RA SCT017 FEW033CB BKN060 
  FM080900 05005KT 9999 FEW020 SCT050 
  FM081800 20008KT 9999 SCT020 FEW033CB BKN040