TAF MSLP 042125Z 0500/0524 VRB05KT 9999 FEW027 FEW040CB SCT060 TX32/0518Z TN24/0510Z 
  TEMPO 0506/0509 05008KT 5000 TSRA SCT023 FEW033CB BKN055 
  TEMPO 0509/0512 8000 RA SCT020 FEW037CB SCT077 
  FM051200 04005KT 9999 SCT060 
  FM051800 21009KT 9999 FEW023 SCT055