TAF MSLP 180330Z 1806/1906 05007KT CAVOK TX35/1818Z TN22/1810Z 
  FM181800 22006KT 9999 FEW066 
  FM190000 VRB04KT CAVOK