TAF MSLP 200325Z 2006/2106 03006KT CAVOK TX32/2019Z TN22/2011Z 
      TEMPO 2014/2018 03007G17KT 
     FM201800 20007KT 9999 SCT043 
     FM210000 04004KT CAVOK
