TAF MSLP 111005Z 1112/1212 04007KT CAVOK TX34/1118Z TN24/1210Z 
  FM111800 22010KT 9999 FEW067 
  FM120000 VRB03KT CAVOK 
  FM120600 02006KT CAVOK