TAF MSLP 091622Z 0918/1018 25007KT 9999 SCT017 FEW037CB BKN050 TX33/0918Z TN24/1011Z 
  TEMPO 0923/1001 36010KT 5000 TSRA BKN017 BKN033CB 
  FM100100 05005KT 9999 FEW013 SCT027 BKN060 
  FM101200 15006KT 9999 FEW023 SCT050