TAF MSLP 091045Z 0912/1012 02010G20KT CAVOK TX34/0918Z TN23/1010Z 
  TEMPO 0921/0924 22012KT 9999 FEW067 
  FM100000 02012KT CAVOK