TAF MSLP 241025Z 2412/2512 03015G25KT CAVOK TX34/2418Z TN23/2412Z 
  FM242000 03008KT CAVOK