TAF MSLP 211525Z 2118/2218 12010KT 9999 FEW040 TX36/2119Z TN25/2210Z 
  PROB30 
  TEMPO 2122/2201 17012KT 5000 TSRA FEW037CB SCT060 
  FM220100 VRB03KT 9999 FEW070 
  FM221200 05006KT CAVOK