TAF MSLP 050325Z 0506/0606 02010G25KT CAVOK TX32/0518Z TN20/0510Z