TAF MSLP 160325Z 1606/1706 04005KT CAVOK TX33/1618Z TN26/1610Z 
  FM161600 13010KT 9999 FEW030 
  FM170200 25006KT CAVOK