TAF MSLP 242138Z 2500/2524 VRB01KT 9999 FEW027 TX33/2518Z TN25/2511Z 
  FM250600 03004KT 9999 SCT075 
  FM251200 05007KT CAVOK 
  FM251700 18006KT 9999 FEW037