TAF MSLP 170325Z 1706/1806 05012KT CAVOK TX34/1718Z TN25/1710Z 
      TEMPO 1719/1723 16008KT 9999 FEW060 
     FM180000 05007KT CAVOK
