TAF MSLP 091525Z 0918/1018 06014KT CAVOK TX34/0918Z TN22/1011Z 
  TEMPO 0920/0924 22012KT 9999 SCT043 
  FM100000 02012KT CAVOK