TAF MSLP 030925Z 0312/0412 04005KT CAVOK TX35/0318Z TN25/0410Z 
  FM031800 22007KT 9999 FEW037 
  FM040000 VRB02KT 9999 SCT077 
  FM040500 02005KT 9999 FEW077