TAF MSLP 080325Z 0806/0906 04004KT 9999 FEW023 FEW037CB SCT067 TX32/0818Z TN23/0810Z 
     FM081200 07004KT 9999 FEW067 
     FM081800 21007KT 9999 FEW027 FEW037CB SCT055 
     FM090000 VRB03KT 9999 FEW023 SCT067
