TAF MSLP 102125Z 1100/1124 18012KT 9999 RA SCT010 FEW037CB OVC060 TX31/1118Z TN24/1110Z 
  TEMPO 1104/1108 13015G30KT 1000 +TSRA BKN010 SCT033CB OVC040 
  FM110800 09010KT 5000 TSRA SCT010 SCT033CB BKN060 
  FM111200 VRB02KT 8000 RA SCT010 FEW040CB BKN060 
  FM111800 22010KT 9999 FEW020 FEW040CB SCT070