TAF MSLP 190325Z 1906/2006 02006KT CAVOK TX35/1918Z TN23/1910Z 
  FM191200 03007G17KT CAVOK 
  FM191800 22006G16KT 9999 FEW070 
  FM200200 02006KT CAVOK