TAF MSLP 050325Z 0506/0606 05003KT CAVOK TX32/0518Z TN23/0512Z 
     FM051800 19006KT 9999 FEW050 
     FM060100 VRB02KT 9999 SCT070
