TAF MSLP 130325Z 1306/1406 04004KT CAVOK TX33/1318Z TN22/1310Z 
     FM131800 21007KT 9999 FEW055 
     FM140000 VRB03KT 9999 FEW067
