TAF MSLP 072130Z 0800/0824 VRB05KT 9999 FEW070 TX33/0818Z TN22/0811Z 
  FM080600 05005KT CAVOK 
  FM081800 21009KT 9999 FEW040CB SCT050