TAF MSLP 310925Z 3112/0112 03008KT CAVOK TX35/3118Z TN25/0110Z 
  FM311700 21012KT 9999 FEW055 
  FM010000 02004KT 9999 FEW030 SCT055 
  TEMPO 0105/0108 7000 SHRA FEW025 BKN055