TAF MSLP 040325Z 0406/0506 36007KT CAVOK TX33/0418Z TN22/0411Z 
      TEMPO 0414/0418 02010G20KT 
     FM041800 03006KT 9999 SCT060
