TAF MSLP 150925Z 1512/1612 04006KT CAVOK TX34/1518Z TN23/1610Z 
  FM151800 22009KT 9999 FEW055 
  FM160000 VRB03KT CAVOK 
  FM160400 04004KT CAVOK