TAF MSLP 230925Z 2312/2412 03008KT CAVOK TX34/2319Z TN25/2312Z 
  FM231900 20009KT 9999 FEW060 
  TEMPO 2401/2404 VRB01KT 
  TEMPO 2404/2409 9999 SCT065 
  FM240900 04004KT CAVOK