TAF MSLP 210325Z 2106/2206 07004KT CAVOK TX33/2118Z TN20/2110Z 
  FM211800 22009KT 9999 FEW055 
  FM220000 VRB03KT 9999 FEW067