TAF MSLP 121525Z 1218/1318 22010KT 9999 FEW023 SCT043 TX34/1218Z TN24/1310Z 
  FM130000 VRB03KT 9999 FEW020 FEW037CB 
  PROB30 
  TEMPO 1304/1307 06007KT 8000 TSRA FEW017 FEW037CB SCT070 
  FM130700 02003KT 9999 SCT070