TAF MSLP 100325Z 1006/1106 VRB03KT 9999 SCT070 TX33/1017Z TN23/1011Z 
  FM101100 03007KT CAVOK 
  FM101700 20006KT 9999 FEW047 
  FM110000 VRB02KT 9999 FEW060