TAF MSLP 110925Z 1112/1212 04005KT CAVOK TX35/1118Z TN24/1210Z 
  FM111800 13010KT 9999 FEW040CB FEW060 
  TEMPO 1200/1204 12012G35KT 1000 +TSRA BKN017 BKN030CB 
  FM120400 02005KT CAVOK