TAF MSLP 112128Z 1200/1224 04005KT CAVOK TX34/1218Z TN23/1210Z 
  TEMPO 1212/1215 04010G20KT 
  FM121500 04009KT CAVOK 
  FM121800 23009KT 9999 FEW077