TAF MSLP 162125Z 1700/1724 VRB01KT CAVOK TX33/1719Z TN23/1712Z 
  FM170400 03010KT CAVOK 
  TEMPO 1719/1724 18006KT 9999 FEW060