TAF MSLP 080335Z 0806/0906 02010KT CAVOK TX33/0818Z TN21/0810Z 
  TEMPO 0820/0824 21008KT 
  FM090000 02012G24KT CAVOK