TAF MSLP 070925Z 0712/0812 07005KT CAVOK TX35/0717Z TN23/0810Z 
  FM071700 20009KT 9999 FEW047 
  FM080000 VRB02KT 9999 SCT060 
  FM080400 05004KT 9999 FEW050 SCT067