TAF MSLP 081030Z 0812/0912 06006KT 9999 FEW077 TX33/0818Z TN22/0911Z 
  FM081800 21009KT 9999 FEW040CB SCT050 
  FM090000 18005KT 9999 FEW070 
  FM090600 VRB04KT 9999 FEW037CB SCT060