TAF MSLP 300325Z 3006/0106 03006KT CAVOK TX33/3018Z TN21/3012Z 
      TEMPO 3019/3024 22006KT 9999 SCT060 
     FM010000 VRB01KT 9999 FEW037CB SCT070 
     FM010300 04004KT CAVOK
