TAF MSLP 040925Z 0412/0512 02012KT CAVOK TX30/0419Z TN21/0510Z 
  TEMPO 0421/0424 22008KT 
  FM050000 03005KT CAVOK