TAF MSLP 011525Z 0118/0218 36015G39KT CAVOK TX33/0118Z TN21/0210Z