TAF MSLP 300325Z 3006/3106 02008KT CAVOK TX33/3018Z TN21/3011Z 
      TEMPO 3019/3024 20007KT 9999 FEW055 
     FM310000 02008KT CAVOK
