TAF MSLP 190325Z 1906/2006 02015G25KT CAVOK TX34/1919Z TN22/1910Z 
  TEMPO 1920/1924 9999 FEW070 
  FM200000 03013KT CAVOK