TAF MSLP 300325Z 3006/3106 04012KT CAVOK TX36/3018Z TN25/3010Z 
  TEMPO 3015/3018 02010G20KT 
  FM301800 13010KT CAVOK 
  FM310200 34005KT CAVOK