TAF MSLP 190925Z 1912/2012 02005KT CAVOK TX36/1918Z TN25/2010Z 
  TEMPO 1920/1924 17010KT CAVOK 
  FM200200 32005KT CAVOK