TAF MSLP 152125Z 1600/1624 25006KT CAVOK TX33/1618Z TN26/1610Z 
  FM160400 02006KT CAVOK 
  FM161600 13010KT 9999 FEW030