TAF MSLP 030925Z 0312/0412 04006KT CAVOK TX37/0318Z TN27/0411Z 
  FM031700 20008KT 9999 FEW060 
  FM040000 33004KT 9999 SCT060 
  FM040600 04006KT CAVOK