TAF MSLP 092125Z 1000/1024 VRB03KT CAVOK TX34/1019Z TN22/1011Z 
  FM100300 03009KT CAVOK 
  FM101900 22008KT 9999 FEW043