TAF MSLP 061525Z 0618/0718 22010KT 9999 SCT023 FEW040CB TX34/0618Z TN23/0710Z 
  FM070000 VRB02KT 9999 FEW027 FEW037CB SCT060 
  TEMPO 0704/0707 09010KT 3000 +TSRA BKN017 SCT030CB BKN043 
  BECMG 0707/0711 02008KT 7000 RA BKN017 FEW040CB 
  FM071100 12005KT 9999 FEW017