TAF MSLP 312125Z 0100/0124 02012KT CAVOK TX33/0118Z TN19/0110Z 
  TEMPO 0105/0109 02012G22KT 
  TEMPO 0115/0119 02015G25KT