TAF MSLP 130325Z 1306/1406 04008KT CAVOK TX36/1319Z TN22/1312Z 
  FM131800 13010KT 9999 FEW070 
  FM140000 32005KT CAVOK