TAF MSLP 091525Z 0918/1018 22010KT 9999 FEW055 TX33/0918Z TN23/1010Z 
  FM100000 VRB02KT 9999 SCT065 
  FM100500 04004KT CAVOK