TAF MSLP 080925Z 0812/0912 02008KT CAVOK TX33/0818Z TN20/0910Z 
  FM081800 13008KT 9999 FEW060 
  TEMPO 0900/0904 VRB03KT CAVOK 
  FM090400 02008KT CAVOK