TAF MSLP 230925Z 2312/2412 02005KT CAVOK TX35/2318Z TN24/2412Z 
  FM231700 13008KT 9999 FEW030 FEW040CB 
  FM240000 25006KT 9999 FEW020 
  FM240500 02005KT CAVOK