TAF MSLP 242150Z 2500/2524 VRB06KT 9999 FEW077 TX34/2518Z TN23/2510Z 
  FM250600 04009KT CAVOK