TAF MSLP 290925Z 2912/3012 02012KT CAVOK TX36/2917Z TN25/3010Z 
  FM291800 21010KT 9999 FEW050 
  FM300000 02008KT 9999 FEW030 SCT065