TAF MSLP 311025Z 3112/0112 04007KT CAVOK TX33/3117Z TN23/3112Z 
  FM311800 18006KT 9999 FEW060 
  FM010000 02015G25KT CAVOK