TAF MSLP 192125Z 2000/2024 VRB03KT 9999 FEW070 TX33/2018Z TN21/2010Z 
  FM200600 03005KT CAVOK 
  FM201800 20010KT 9999 FEW047