TAF MSLP 200325Z 2006/2106 02012KT CAVOK TX35/2018Z TN26/2010Z 
  TEMPO 2005/2009 02012G22KT 
  TEMPO 2015/2019 02012G24KT 
  FM201900 02010KT 9999 FEW060