TAF MSLP 060325Z 0606/0706 04005KT CAVOK TX33/0618Z TN23/0610Z 
     FM061800 13008KT 9999 FEW070
