TAF MSLP 082125Z 0900/0924 02012G25KT CAVOK TX34/0920Z TN20/0910Z 
  TEMPO 0921/0924 22012KT