TAF MSLP 211525Z 2118/2218 06006KT 9999 FEW060 TX34/2118Z TN24/2210Z 
  FM220000 02006KT CAVOK