TAF MSLP 110925Z 1112/1212 VRB02KT 5000 RA FEW010 FEW040CB BKN060 TX32/1118Z TN24/1210Z F111600 22010KT 9999 FEW020 SCT060 
  FM120000 VRB02KT 9999 FEW060