TAF MSLP 260325Z 2606/2706 09004KT 9999 FEW060 TX33/2618Z TN23/2610Z 
     FM261200 04006KT CAVOK 
     FM261800 19006KT 9999 FEW060
