TAF MSLP 181535Z 1818/1918 22007KT 9999 FEW055 TX36/1819Z TN25/1912Z 
  FM190000 VRB01KT 9999 FEW070 
  FM191200 04004KT CAVOK