TAF MSLP 170925Z 1712/1812 04006KT CAVOK TX36/1718Z TN25/1810Z 
  FM171900 23008KT 9999 FEW055 
  FM180000 VRB02KT 9999 FEW065 
  FM180400 04006KT CAVOK