TAF MSLP 022125Z 0300/0324 VRB02KT 9999 FEW070 TX37/0318Z TN27/0311Z 
  TEMPO 0303/0310 BKN070 
  FM031000 03007KT CAVOK 
  FM031700 20008KT 9999 FEW060