TAF AMD MSLP 080431Z 0806/0906 09005KT 9999 FEW043 SCT077 TX33/0818Z TN22/0811Z 
  FM081200 05003KT 9999 FEW077 
  FM081800 21009KT 9999 FEW040CB SCT050 
  FM090000 18005KT 9999 FEW070