TAF MSLP 160325Z 1606/1706 02008KT CAVOK TX35/1618Z TN23/1610Z 
     FM161000 03012G25KT CAVOK 
      TEMPO 1620/1624 22010KT 9999 FEW070 
     FM170000 34006G16KT CAVOK
