TAF MSLP 120330Z 1206/1306 04006KT 9999 FEW077 TX34/1218Z TN20/1212Z 
     FM121200 05009KT CAVOK 
      TEMPO 1220/1223 19006KT 9999 FEW067 
     FM130000 VRB05KT 9999 FEW070
