TAF MSLP 190325Z 1906/2006 03004KT 9999 FEW023 FEW037CB SCT070 TX32/1919Z TN24/1910Z 
  PROB40 
  TEMPO 1908/1910 8000 TSRA 
  FM191200 05003KT 9999 FEW030 
  TEMPO 1920/1922 23009KT 8000 TSRA SCT030 FEW037CB 
  TEMPO 2002/2004 06010G22KT 2000 +TSRA BKN023 SCT030CB BKN060