TAF MSLP 032125Z 0400/0424 03010KT CAVOK TX30/0419Z TN21/0410Z 
  TEMPO 0421/0424 22008KT