TAF MSLP 272125Z 2800/2824 07004KT CAVOK TX33/2818Z TN21/2811Z 
  FM281800 22008KT 9999 FEW060