TAF MSLP 080325Z 0806/0906 04005KT CAVOK TX33/0818Z TN23/0810Z 
     FM081800 20008KT 9999 FEW060 
     FM090000 VRB03KT CAVOK
