TAF MSLP 201525Z 2018/2118 02010G25KT CAVOK TX36/2018Z TN23/2110Z