TAF MSLP 041540Z 0418/0518 22009KT 9999 FEW043 TX35/0419Z TN26/0512Z 
  FM050000 VRB02KT 9999 FEW207 
  FM050400 VRB02KT 9999 SCT075 
  PROB30 
  TEMPO 0505/0507 06008KT 8000 SHRA SCT060 
  FM050700 03004KT 9999 CAVOK