TAF MSLP 111540Z 1118/1218 22009KT 9999 FEW077 TX35/1118Z TN24/1210Z 
  FM120300 VRB03KT 9999 FEW077 
  FM120900 02008KT CAVOK