TAF MSLP 012125Z 0200/0224 36015G39KT CAVOK TX33/0118Z TN21/0210Z