TAF MSLP 152125Z 1600/1624 VRB02KT CAVOK TX33/1618Z TN21/1610Z 
  FM161200 04005KT CAVOK 
  FM161800 VRB02KT 9999 FEW060