TAF MSLP 201025Z 2012/2112 05003KT 9999 FEW030 TX32/2019Z TN24/2012Z 
  FM201700 22010KT 9999 FEW030 FEW037CB 
  FM210000 VRB02KT 9999 FEW023 FEW037CB 
  TEMPO 2106/2108 06012KT 4000 TSRA SCT023 SCT030CB BKN060