TAF MSLP 191555Z 1918/2018 18010KT CAVOK TX36/1918Z TN25/2010Z 
  FM200200 33005KT CAVOK 
  FM200800 02005KT CAVOK