TAF MSLP 060325Z 0606/0706 07004KT 9999 FEW070 TX34/0617Z TN23/0611Z 
  FM061300 12006KT 9999 FEW050 
  FM061700 20008KT 9999 SCT050 
  TEMPO 0702/0706 VRB02KT 9999 BKN065