TAF MSLP 130925Z 1312/1412 04005KT CAVOK TX34/1318Z TN25/1410Z 
  FM131800 22010KT 9999 SCT027 FEW037CB 
  FM140000 VRB03KT 9999 FEW020 
  FM140400 04005KT 9999 SCT070