TAF MSLP 062125Z 0700/0724 VRB05KT CAVOK TX32/0718Z TN20/0711Z 
  FM070600 02008KT CAVOK 
  FM071800 22009KT 9999 FEW070