TAF MSLP 292125Z 3000/3024 VRB02KT CAVOK TX36/3018Z TN23/3010Z 
  FM301200 02010KT CAVOK 
  TEMPO 3020/3024 13008KT CAVOK