TAF MSLP 260325Z 2606/2706 34005KT CAVOK TX33/2618Z TN20/2610Z 
  FM261200 02005KT CAVOK 
  FM261800 22010KT 9999 FEW060 
  FM270200 02006KT CAVOK