TAF MSLP 111525Z 1118/1218 23005KT 9999 SCT060 TX32/1118Z TN22/1212Z 
  FM120000 02006KT CAVOK 
  FM120500 02012G25KT CAVOK