TAF MSLP 180925Z 1812/1912 02007KT CAVOK TX34/1819Z TN22/1910Z 
  TEMPO 1815/1819 02012G24KT 
  FM181900 02010KT 9999 FEW055 
  FM190000 02012KT CAVOK