TAF MSLP 100925Z 1012/1112 09006KT 9999 FEW023 BKN050 TX31/1018Z TN24/1110Z 
  FM101800 16007KT 9999 SCT020 FEW037CB BKN040 
  TEMPO 1020/1023 14009KT 1500 +TSRA SCT017 SCT033CB BKN040 
  FM102300 18006KT 8000 TSRA FEW020 SCT037CB BKN050 
  TEMPO 1101/1104 20010KT 3000 +TSRA BKN020 SCT033CB