TAF MSLP 181000Z 1812/1912 05009KT CAVOK TX33/1819Z TN23/1910Z 
  FM181800 19009KT 9999 FEW037CB SCT050 
  FM190000 23007KT 9999 FEW065 
  FM190600 05008KT CAVOK