TAF MSLP 100345Z 1006/1106 05007KT 8000 RA FEW013 SCT027 SCT033CB BKN040 TX33/1018Z TN24/1011Z 
  FM101200 15006KT 9999 FEW023 SCT050 
  FM101800 22007KT 9999 FEW020 FEW037CB 
  TEMPO 1021/1101 16008KT 1500 +TSRA SCT018 SCT033CB BKN040 
  FM110300 03006KT 8000 TSRA FEW020 SCT037CB BKN060