TAF MSLP 201525Z 2018/2118 23006KT 9999 FEW050 TX36/2018Z TN25/2110Z 
  FM210000 VRB02KT 9999 FEW070 
  TEMPO 2106/2110 9999 SCT070 
  FM211000 03007KT CAVOK