TAF MSLP 231525Z 2318/2418 13008KT 9999 FEW040CB FEW060 TX35/2318Z TN24/2410Z 
  PROB30 
  TEMPO 2401/2405 08012KT 5000 TSRA SCT023 SCT033CB BKN060 
  FM240500 04006KT CAVOK