TAF MSLP 291525Z 2918/3018 06008KT CAVOK TX36/2918Z TN23/3010Z 
  TEMPO 2920/2924 13008KT CAVOK 
  FM300000 VRB02KT CAVOK 
  FM301200 02005KT CAVOK