TAF MSLP 050325Z 0506/0606 03010KT CAVOK TX36/0518Z TN25/0510Z 
  FM051800 22010KT 9999 SCT060 
  TEMPO 0603/0606 VRB03KT CAVOK