TAF MSLP 242125Z 2500/2524 VRB02KT 9999 FEW065 TX34/2518Z TN23/2510Z 
  FM250400 04006KT CAVOK 
  FM251800 20010KT 9999 FEW055