TAF MSLP 021525Z 0218/0318 21009KT 9999 FEW047 TX33/0218Z TN25/0310Z 
  FM030000 35004KT 9999 FEW030 SCT065 
  FM031000 04007KT CAVOK