TAF MSLP 200335Z 2006/2106 07005KT 8000 RA FEW020 FEW040CB SCT060 TX33/2018Z TN24/2010Z 
  FM200800 VRB03KT 9999 NSW FEW020 SCT060 
  FM201200 04005KT CAVOK 
  FM201800 22010KT 9999 SCT033 FEW037CB 
  PROB40 
  TEMPO 2103/2106 06012KT 5000 TSRA SCT020 SCT033CB BKN040