TAF MSLP 230325Z 2306/2406 03004KT 9999 SCT078 TX34/2319Z TN25/2311Z 
  FM230900 03008KT CAVOK 
  FM231900 20009KT 9999 FEW060 
  FM240000 VRB01KT 9999 FEW060