TAF MSLP 272125Z 2800/2824 VRB03KT 9999 FEW023 FEW037CB TX36/2818Z TN25/2810Z 
  FM280400 04007KT CAVOK 
  FM281900 18008KT 9999 FEW050