TAF MSLP 291525Z 2918/3018 01010KT CAVOK TX34/2918Z TN23/3010Z 
  TEMPO 2921/3000 21010KT 9999 FEW067 
  FM300000 03010KT CAVOK