TAF MSLP 131525Z 1318/1418 20009KT 9999 FEW047 TX34/1318Z TN24/1410Z 
  FM140000 VRB02KT 9999 FEW033 SCT055 
  TEMPO 1404/1407 04007KT 8000 TSRA FEW025 FEW037CB BKN055 
  FM140700 02005KT 9999 FEW033 SCT067 
  FM141200 07004KT 9999 FEW077