TAF MSLP 280325Z 2806/2906 02012KT CAVOK TX33/2818Z TN20/2810Z 
  TEMPO 2806/2810 02010G20KT 
  TEMPO 2815/2819 02012G24KT 
  FM281900 02010KT 9999 SCT055