TAF MSLP 261525Z 2618/2718 23010KT CAVOK TX34/2618Z TN22/2710Z 
  FM270000 VRB02KT CAVOK 
  TEMPO 2704/2712 06004KT 
  FM271300 04005KT CAVOK