TAF MSLP 150938Z 1512/1612 02012KT CAVOK TX33/1518Z TN24/1611Z 
  FM151800 16007KT 9999 FEW060 
  FM160000 VRB04KT 9999 FEW077 
  FM160600 03012G24KT CAVOK