TAF MSLP 162125Z 1700/1724 VRB02KT 9999 FEW060 TX36/1718Z TN26/1711Z 
  FM170400 04003KT CAVOK 
  FM171800 23007KT 9999 FEW060