TAF MSLP 221525Z 2218/2318 20012KT 9999 FEW065 TX35/2219Z TN25/2311Z 
  FM230000 VRB02KT CAVOK 
  FM230400 04006KT CAVOK