TAF MSLP 061025Z 0612/0712 12006KT 9999 FEW033 TX34/0617Z TN23/0612Z 
  FM061700 20008KT 9999 SCT050 
  FM070200 VRB02KT 9999 BKN065