TAF MSLP 121000Z 1212/1312 04007KT CAVOK TX34/1218Z TN23/1311Z 
  FM121800 21008KT 9999 FEW037CB FEW060 
  FM130000 VRB05KT 9999 SCT050 
  FM130600 05006KT 9999 FEW033CB SCT047