TAF MSLP 282125Z 2900/2924 02005KT 9999 FEW030 SCT065 TX36/2917Z TN25/2910Z 
  PROB30 
  TEMPO 2903/2905 8000 SHRA 
  FM290700 02012KT CAVOK 
  FM291800 21010KT 9999 FEW050