TAF MSLP 261541Z 2618/2718 20010KT 9999 SCT060 TX37/2619Z TN26/2711Z 
  FM270000 VRB02KT 9999 FEW030 FEW037CB 
  FM270400 03006KT 9999 BKN060 
  FM271200 03009KT 9999 FEW070