TAF COR MSLP 302141Z 3100/3124 VRB01KT 9999 FEW060 TX35/3118Z TN26/3112Z 
  FM310600 04006KT 9999 SCT047 
  FM311100 03010KT CAVOK 
  FM311700 21012KT 9999 SCT047 
  PROB40 
  TEMPO 0109/0111 04004KT 8000 SHRA BKN060