TAF MSLP 190925Z 1912/2012 03010G20KT CAVOK TX34/1919Z TN22/2010Z 
  FM200000 03013KT 9999 FEW077 
  FM200600 05010KT CAVOK