TAF MSLP 061525Z 0618/0718 22010KT CAVOK TX32/0618Z TN20/0710Z 
      TEMPO 0700/0704 VRB02KT CAVOK 
     FM070400 02008KT CAVOK