TAF MSLP 240325Z 2406/2506 02010G20KT CAVOK TX34/2418Z TN23/2410Z 
  TEMPO 2415/2420 03015G25KT 
  FM242000 03008KT CAVOK