TAF MSLP 071525Z 0718/0818 21005KT 9999 FEW060 TX33/0718Z TN20/0811Z 
  FM080000 VRB04KT CAVOK 
  TEMPO 0806/0818 03007KT