TAF MSLP 211525Z 2118/2218 22006G16KT CAVOK TX34/2117Z TN25/2210Z 
  TEMPO 2200/2204 25008KT 
  FM220400 04010KT CAVOK 
  FM221200 02010G25KT CAVOK