TAF MSLP 181558Z 1818/1918 23006KT 9999 FEW060 TX35/1818Z TN21/1911Z 
  FM190000 VRB04KT 9999 FEW070 
  TEMPO 1906/1912 SCT070 
  FM191200 11004KT CAVOK