TAF MSLP 190925Z 1912/2012 02006G16KT CAVOK TX35/1918Z TN23/2010Z 
  FM191800 22006G16KT 9999 FEW070 
  FM200300 02006KT CAVOK