TAF MSLP 160325Z 1606/1706 VRB02KT CAVOK TX33/1618Z TN21/1610Z 
  FM161600 13008KT CAVOK 
  TEMPO 1620/1624 24006KT 9999 FEW060 
  FM170000 VRB02KT CAVOK