TAF MSLP 061525Z 0618/0718 22006KT 9999 FEW037 TX32/0618Z TN25/0711Z 
  TEMPO 0620/0622 8000 TSRA SCT033 FEW037CB 
  FM070000 VRB02KT 9999 FEW027 
  TEMPO 0704/0712 9999 SCT070