TAF MSLP 120925Z 1212/1312 02010G25KT CAVOK TX35/1218Z TN23/1310Z 
  PROB30 
  TEMPO 1220/1224 22006G16KT 9999 FEW060