TAF MSLP 122125Z 1300/1324 VRB03KT 9999 FEW023 FEW037CB TX34/1318Z TN24/1310Z 
  FM130400 03005KT 9999 SCT063 
  FM130700 05003KT 9999 FEW070 
  FM131800 23010KT 9999 SCT023 FEW037CB