TAF MSLP 120325Z 1206/1306 09012KT 6000 TSRA SCT017 SCT033CB TX34/1218Z TN25/1210Z 
  FM120800 06003KT 9999 NSW FEW017 FEW040CB SCT050 
  FM121200 04005KT CAVOK 
  FM121800 19008KT 9999 FEW040 
  PROB40 
  TEMPO 1303/1306 09014KT 5000 TSRA BKN020 SCT033CB