TAF MSLP 231525Z 2318/2418 20009KT 9999 FEW055 TX35/2318Z TN23/2410Z 
  FM240000 VRB02KT 9999 FEW067 
  FM240300 02006KT CAVOK