TAF MSLP 081525Z 0818/0918 02012KT CAVOK TX34/0820Z TN23/0911Z 
  TEMPO 0821/0824 21008KT 
  FM090400 02010G20KT CAVOK