TAF MSLP 160945Z 1612/1712 03005KT CAVOK TX35/1619Z TN25/1711Z 
  FM161800 21008KT 9999 FEW037 FEW037CB 
  FM170000 VRB05KT 9999 FEW033 
  FM170600 04003KT CAVOK