TAF MSLP 232125Z 2400/2424 VRB05KT 9999 FEW023 FEW037CB TX34/2418Z TN24/2411Z 
  TEMPO 2402/2406 07014KT 5000 TSRA SCT020 BKN033CB BKN055 
  FM240500 36003KT 9999 FEW020 FEW037CB SCT050 
  FM241100 03005KT CAVOK 
  FM241800 21009KT 9999 FEW055