TAF MSLP 110325Z 1106/1206 05005KT 9999 FEW027 SCT070 TX35/1119Z TN26/1112Z 
  FM111200 03003KT 9999 FEW077 
  FM111800 19007KT 9999 FEW060 
  FM120000 VRB05KT 9999 SCT027 FEW037CB