TAF MSLP 050925Z 0512/0612 02010G25KT CAVOK TX32/0518Z TN20/0610Z