TAF MSLP 150335Z 1506/1606 05005KT 9999 SCT070 TX34/1518Z TN25/1512Z 
  FM151200 04005KT CAVOK 
  FM151800 22009KT 9999 FEW037CB SCT043 
  FM160000 VRB04KT 9999 FEW070