TAF MSLP 090325Z 0906/1006 VRB02KT 9999 SCT075 TX32/0917Z TN20/0911Z 
  FM090900 02007KT CAVOK 
  FM091700 20008KT 9999 FEW060 
  FM100000 VRB02KT 9999 FEW060