TAF MSLP 261000Z 2612/2712 05006KT CAVOK TX35/2618Z TN23/2711Z 
  FM261800 21009KT 9999 SCT060 
  FM270000 VRB05KT 9999 FEW033 FEW037CB SCT055 
  PROB30 
  TEMPO 2707/2710 06007KT 8000 TSRA SCT037 FEW033CB BKN050