TAF MSLP 190330Z 1906/2006 06007KT CAVOK TX33/1918Z TN24/1910Z 
     FM191800 21008KT 9999 FEW037 
     FM200000 VRB04KT 9999 FEW070
