TAF AMD MSLP 091116Z 0912/1012 04005KT 9999 SCT023 BKN060 TX33/0918Z TN23/1010Z 
  PROB30 
  TEMPO 0914/0917 VRB02KT 8000 RA 
  FM091700 22010KT 9999 SCT020 FEW040CB SCT043 
  TEMPO 0922/1002 34012KT 5000 TSRA SCT023 BKN033CB 
  FM100200 25006KT 9999 FEW020 FEW040CB SCT060