TAF MSLP 040325Z 0406/0506 03010KT CAVOK TX30/0419Z TN21/0410Z 
  TEMPO 0421/0424 22008KT 
  FM050000 VRB05KT CAVOK