TAF MSLP 081525Z 0818/0918 20007KT 9999 FEW060 TX33/0818Z TN20/0910Z 
  FM090000 VRB02KT CAVOK 
  FM090400 02007KT CAVOK