TAF MSLP 240925Z 2412/2512 08011KT 7000 TSRA FEW020 SCT033CB BKN060 TX33/2418Z TN24/2510Z 
  FM241500 04006KT 9999 FEW020 
  FM241800 21010KT 9999 FEW030 FEW040CB 
  TEMPO 2502/2506 06012KT 5000 TSRA SCT020 SCT033CB BKN055 
  FM250600 05003KT 9999 FEW020