TAF MSLP 172125Z 1800/1824 VRB02KT 9999 FEW077 TX34/1819Z TN23/1810Z 
  FM180400 02010KT CAVOK 
  TEMPO 1815/1819 02012G24KT 
  FM181900 02010KT 9999 FEW055