TAF MSLP 220325Z 2206/2306 04005KT CAVOK TX33/2218Z TN23/2210Z 
     FM221800 23008KT CAVOK 
     FM230000 04005KT CAVOK
