TAF MSLP 150325Z 1506/1606 04006KT CAVOK TX34/1518Z TN23/1510Z 
  FM151800 22009KT 9999 FEW055 
  FM160000 VRB03KT CAVOK