TAF MSLP 120925Z 1212/1312 04010G20KT CAVOK TX34/1218Z TN23/1310 
  FM121800 23009KT 9999 FEW077 
  FM130300 02005KT CAVOK