TAF MSLP 112125Z 1200/1224 12012G35KT 1000 +TSRA BKN017 BKN030CB TX34/1218Z TN25/1210Z 
  FM120200 04005KT 9999 NSW FEW020 FEW040CB SCT060 
  TEMPO 1204/1206 09012KT 5000 TSRA BKN020 SCT033CB 
  FM120600 06008KT CAVOK