TAF MSLP 010925Z 0112/0212 04005KT CAVOK TX34/0218Z TN21/0210Z 
  FM011800 22009KT 9999 FEW055 
  FM020000 VRB02KT 9999 FEW067