TAF MSLP 261025Z 2612/2712 09006KT CAVOK TX35/2618Z TN25/2612Z 
  FM261700 19004KT 9999 FEW037 
  FM270000 VRB02KT 9999 FEW027 
  FM270400 04004KT 9999 BKN065