TAF MSLP 240925Z 2412/2512 04005KT CAVOK TX34/2418Z TN24/2511Z 
  FM241800 21009KT 9999 FEW055 
  FM250000 VRB04KT 9999 FEW023 FEW037CB 
  FM250600 03004KT 9999 FEW060