TAF MSLP 030925Z 0312/0412 01015G25KT CAVOK TX32/0319Z TN21/0411Z 
  TEMPO 0320/0324 20004KT 
  FM040000 02008KT CAVOK