TAF MSLP 280925Z 2812/2912 03007KT CAVOK TX36/2818Z TN25/2910Z 
  FM281900 18008KT 9999 FEW050 
  FM290100 VRB03KT CAVOK 
  FM290600 03007KT CAVOK