TAF MSLP 010925Z 0112/0212 02015G27KT CAVOK TX33/0118Z TN19/0210Z