TAF MSLP 081525Z 0818/0918 17008KT 9999 FEW020 SCT047 TX31/0818Z TN23/0909Z 
  TEMPO 0819/0822 19008KT 7000 SHRA SCT020 FEW037CB BKN040 
  FM082200 20007KT 9999 FEW027 SCT060 
  FM090000 VRB02KT 9999 FEW023 FEW037CB SCT050 
  TEMPO 0902/0905 05006KT 5000 TSRA SCT017 SCT033CB BKN050