TAF MSLP 141025Z 1412/1512 07004KT 9999 FEW027 SCT070 TX33/1417Z TN25/1512Z 
  FM141600 20008KT 9999 SCT037 
  FM150000 VRB02KT 9999 FEW030 FEW037CB 
  TEMPO 1507/1510 03004KT 9999 BKN060