TAF MSLP 050325Z 0506/0606 VRB02KT CAVOK TX36/0519Z TN24/0510Z 
  FM051200 02005KT CAVOK 
  FM051800 13008KT CAVOK 
  FM060200 VRB02KT 9999 FEW060