TAF MSLP 250325Z 2506/2606 02010G20KT CAVOK TX34/2518Z TN24/2510Z 
  FM251200 04008KT CAVOK 
  FM251800 20009KT 9999 FEW060 
  FM260000 VRB03KT CAVOK