TAF MSLP 181025Z 1812/1912 03010KT CAVOK TX36/1818Z TN25/1812Z 
  FM181700 23007KT 9999 FEW060 
  FM190000 VRB01KT 9999 FEW070 
  FM190500 04004KT CAVOK