TAF MSLP 160325Z 1606/1706 03009KT 9999 SCT070 TX35/1619Z TN25/1611Z 
  FM161000 02006KT CAVOK 
  FM161800 03008KT 9999 FEW060