TAF AMD MSLP 081738Z 0818/0918 20005KT 9999 SCT033 TX35/0818Z TN25/0912Z 
  FM090000 VRB02KT 9999 FEW030 FEW040CB 
  PROB40 
  TEMPO 0904/0906 06008KT 8000 TSRA SCT027 FEW033CB BKN060 
  FM090600 04006KT 9999 SCT070 
  FM091200 05008KT CAVOK