TAF MSLP 310325Z 3106/0106 02007KT CAVOK TX33/3117Z TN23/3110Z 
  TEMPO 3113/3118 04007KT 
  FM311800 18006KT 9999 FEW060 
  FM010000 02015G25KT CAVOK