TAF MSLP 141525Z 1418/1518 22010KT 9999 FEW070 TX35/1418Z TN26/1512Z 
  FM150000 VRB02KT 9999 FEW070 
  FM150600 03006KT CAVOK 
  FM151200 02005KT 9999 FEW077