TAF MSLP 101025Z 1012/1112 03008KT CAVOK TX35/1018Z TN26/1012Z 
  FM101700 21005KT 9999 FEW043 
  FM110000 VRB02KT 9999 FEW027 FEW040CB 
  TEMPO 1104/1106 06010KT 5000 TSRA SCT027 SCT037CB BKN060 
  FM110600 04004KT 9999 SCT070