TAF MSLP 191559Z 1918/2018 04010G20KT 9999 FEW060 TX35/1918Z TN27/2012Z 
  FM200000 03010KT CAVOK 
  TEMPO 2014/2018 03008G18KT