TAF MSLP 222125Z 2300/2324 VRB01KT CAVOK TX34/2319Z TN25/2311Z 
  TEMPO 2305/2309 03004KT 9999 SCT078 
  FM230900 03008KT CAVOK 
  FM231900 20009KT 9999 FEW060