TAF MSLP 121659Z 1218/1318 21006KT 9999 FEW037 TX35/1218Z TN24/1311Z 
  FM130000 VRB02KT 9999 FEW027 FEW040CB 
  TEMPO 1305/1307 06008KT 5000 TSRA BKN027 SCT033CB BKN060 
  FM131200 09004KT CAVOK