TAF MSLP 141025Z 1412/1512 02010KT CAVOK TX35/1418Z TN26/1412Z 
  FM141800 20008KT 9999 SCT070 
  FM150000 VRB02KT 9999 FEW070 
  FM150600 03006KT CAVOK