TAF MSLP 100325Z 1006/1106 VRB02KT CAVOK TX32/1018Z TN24/1011Z 
     FM101400 02004KT 9999 FEW033 
     FM101800 21006KT 9999 SCT060 
     FM110000 VRB02KT 9999 FEW070
