TAF MSLP 100325Z 1006/1106 04005KT FEW040CB SCT060 TX35/1018Z TN24/1010Z 
  FM101000 07005KT CAVOK 
  FM101800 13010KT 9999 FEW040CB FEW060 
  PROB30 
  TEMPO 1103/1106 07012KT 5000 TSRA SCT017 SCT030CB BKN060