TAF MSLP 191525Z 1918/2018 20009KT 9999 FEW055 TX33/1918Z TN21/2010Z 
  FM200000 VRB02KT 9999 FEW067 
  FM200600 04004KT CAVOK