TAF MSLP 281525Z 2818/0118 22009KT 9999 FEW060 TX34/2819Z TN21/0112Z 
  FM010000 VRB02KT 9999 SCT070 
  FM011200 04005KT CAVOK